{
"type": "FeatureCollection",
"name": "20260705",
"crs": { "type": "name", "properties": { "name": "urn:ogc:def:crs:OGC:1.3:CRS84" } },
"features": [
{ "type": "Feature", "properties": { "fid": 28.0, "id": "Bente K", "fill": null, "fornavn_e": "Bente K" }, "geometry": { "type": "MultiPolygon", "coordinates": [ [ [ [ 10.790141, 59.96348 ], [ 10.790293, 59.963686 ], [ 10.791653, 59.96389 ], [ 10.791052, 59.96442 ], [ 10.78998, 59.965843 ], [ 10.789583, 59.966451 ], [ 10.78866, 59.96677 ], [ 10.788166, 59.966521 ], [ 10.78859, 59.965607 ], [ 10.789555, 59.965393 ], [ 10.789536, 59.964432 ], [ 10.789602, 59.964015 ], [ 10.789454, 59.963441 ], [ 10.789167, 59.963025 ], [ 10.786764, 59.962305 ], [ 10.786433, 59.961959 ], [ 10.785917, 59.961582 ], [ 10.786347, 59.960758 ], [ 10.786587, 59.96022 ], [ 10.786909, 59.960179 ], [ 10.786827, 59.959496 ], [ 10.788191, 59.959517 ], [ 10.788364, 59.959997 ], [ 10.788141, 59.960212 ], [ 10.788852, 59.960874 ], [ 10.788169, 59.961136 ], [ 10.787231, 59.961495 ], [ 10.788914, 59.962045 ], [ 10.789359, 59.962296 ], [ 10.789575, 59.962692 ], [ 10.790141, 59.96348 ] ] ] ] } },
{ "type": "Feature", "properties": { "fid": 1.0, "id": "80", "fill": null, "fornavn_e": "Aase N" }, "geometry": { "type": "MultiPolygon", "coordinates": [ [ [ [ 10.773308, 59.967106 ], [ 10.773597, 59.967732 ], [ 10.773643, 59.967848 ], [ 10.774639, 59.968462 ], [ 10.775114, 59.968648 ], [ 10.775276, 59.968665 ], [ 10.775241, 59.968793 ], [ 10.775519, 59.969059 ], [ 10.77487, 59.969407 ], [ 10.772266, 59.969853 ], [ 10.769291, 59.969094 ], [ 10.766616, 59.968242 ], [ 10.767369, 59.967726 ], [ 10.768793, 59.967808 ], [ 10.769719, 59.967808 ], [ 10.771444, 59.967518 ], [ 10.773284, 59.967118 ], [ 10.773342, 59.967118 ], [ 10.773308, 59.967106 ] ] ] ] } },
{ "type": "Feature", "properties": { "fid": 45.0, "id": "161", "fill": null, "fornavn_e": "Aashild J T" }, "geometry": null },
{ "type": "Feature", "properties": { "fid": 68.0, "id": "165", "fill": null, "fornavn_e": "Andreas A" }, "geometry": { "type": "MultiPolygon", "coordinates": [ [ [ [ 10.80022, 59.948512 ], [ 10.799504, 59.94826 ], [ 10.798579, 59.947998 ], [ 10.798023, 59.948033 ], [ 10.797346, 59.947655 ], [ 10.797356, 59.947393 ], [ 10.798168, 59.946148 ], [ 10.798372, 59.945208 ], [ 10.799378, 59.94529 ], [ 10.799939, 59.946036 ], [ 10.80022, 59.946153 ], [ 10.800597, 59.946439 ], [ 10.801129, 59.94764 ], [ 10.801661, 59.947616 ], [ 10.801942, 59.947674 ], [ 10.801003, 59.948454 ], [ 10.80022, 59.948512 ] ] ] ] } },
{ "type": "Feature", "properties": { "fid": 5.0, "id": "102", "fill": null, "fornavn_e": "Anne A" }, "geometry": { "type": "MultiPolygon", "coordinates": [ [ [ [ 10.792762, 59.965922 ], [ 10.794004, 59.965623 ], [ 10.793997, 59.966705 ], [ 10.79433, 59.966976 ], [ 10.794288, 59.967358 ], [ 10.794149, 59.967505 ], [ 10.793913, 59.967261 ], [ 10.792693, 59.967203 ], [ 10.792762, 59.965922 ] ] ] ] } },
{ "type": "Feature", "properties": { "fid": 70.0, "id": "58", "fill": null, "fornavn_e": "Anne K H" }, "geometry": { "type": "MultiPolygon", "coordinates": [ [ [ [ 10.785523, 59.95505 ], [ 10.785011, 59.95506 ], [ 10.784953, 59.955462 ], [ 10.783569, 59.955791 ], [ 10.783463, 59.956072 ], [ 10.782998, 59.956082 ], [ 10.782814, 59.955868 ], [ 10.782147, 59.953921 ], [ 10.784527, 59.953185 ], [ 10.785369, 59.953141 ], [ 10.785523, 59.95505 ] ] ] ] } },
{ "type": "Feature", "properties": { "fid": 42.0, "id": "73", "fill": null, "fornavn_e": "Arne  S" }, "geometry": { "type": "MultiPolygon", "coordinates": [ [ [ [ 10.796649, 59.954087 ], [ 10.797633, 59.955884 ], [ 10.797682, 59.956182 ], [ 10.797649, 59.956628 ], [ 10.798376, 59.956668 ], [ 10.798211, 59.958413 ], [ 10.797781, 59.959195 ], [ 10.797451, 59.960204 ], [ 10.797153, 59.96142 ], [ 10.796022, 59.961391 ], [ 10.795989, 59.960911 ], [ 10.796823, 59.960989 ], [ 10.797186, 59.960481 ], [ 10.79636, 59.960324 ], [ 10.796517, 59.95864 ], [ 10.796872, 59.958198 ], [ 10.797029, 59.957987 ], [ 10.797335, 59.956945 ], [ 10.797525, 59.956883 ], [ 10.797484, 59.956827 ], [ 10.797484, 59.956651 ], [ 10.79831, 59.956655 ], [ 10.798475, 59.955055 ], [ 10.797856, 59.954008 ], [ 10.796649, 59.954087 ] ] ] ] } },
{ "type": "Feature", "properties": { "fid": 53.0, "id": "86", "fill": null, "fornavn_e": "Astrid S" }, "geometry": { "type": "MultiPolygon", "coordinates": [ [ [ [ 10.78535, 59.945572 ], [ 10.784567, 59.945463 ], [ 10.785142, 59.944103 ], [ 10.785603, 59.944431 ], [ 10.786638, 59.94461 ], [ 10.786477, 59.944921 ], [ 10.787145, 59.945163 ], [ 10.786811, 59.94559 ], [ 10.786777, 59.945912 ], [ 10.786259, 59.946051 ], [ 10.785672, 59.946097 ], [ 10.785511, 59.946552 ], [ 10.785856, 59.946627 ], [ 10.786696, 59.946713 ], [ 10.786938, 59.946863 ], [ 10.787145, 59.947094 ], [ 10.786834, 59.947295 ], [ 10.786006, 59.947831 ], [ 10.78543, 59.948091 ], [ 10.784843, 59.947699 ], [ 10.783669, 59.948218 ], [ 10.784003, 59.948448 ], [ 10.783957, 59.948921 ], [ 10.783451, 59.949114 ], [ 10.783198, 59.948808 ], [ 10.782956, 59.948598 ], [ 10.782139, 59.948644 ], [ 10.782254, 59.948295 ], [ 10.783037, 59.948388 ], [ 10.783497, 59.947782 ], [ 10.784164, 59.946405 ], [ 10.784947, 59.946396 ], [ 10.78535, 59.945572 ] ] ] ] } },
{ "type": "Feature", "properties": { "fid": 3.0, "id": "92", "fill": null, "fornavn_e": "Astrid V" }, "geometry": { "type": "MultiPolygon", "coordinates": [ [ [ [ 10.775846, 59.957477 ], [ 10.781581, 59.956214 ], [ 10.782155, 59.956629 ], [ 10.782293, 59.956823 ], [ 10.782447, 59.956906 ], [ 10.782614, 59.956917 ], [ 10.78227, 59.957211 ], [ 10.782397, 59.95746 ], [ 10.781772, 59.958092 ], [ 10.782895, 59.958374 ], [ 10.7825, 59.958655 ], [ 10.782755, 59.958974 ], [ 10.782346, 59.9596 ], [ 10.7813, 59.959907 ], [ 10.780304, 59.960035 ], [ 10.779526, 59.960488 ], [ 10.77839, 59.959658 ], [ 10.778594, 59.959223 ], [ 10.778339, 59.958636 ], [ 10.777803, 59.958348 ], [ 10.777841, 59.958227 ], [ 10.777433, 59.958297 ], [ 10.777062, 59.958163 ], [ 10.776765, 59.958278 ], [ 10.776436, 59.958039 ], [ 10.776243, 59.957909 ], [ 10.775846, 59.957477 ] ] ] ] } },
{ "type": "Feature", "properties": { "fid": 15.0, "id": "112", "fill": null, "fornavn_e": "Bitten B" }, "geometry": { "type": "MultiPolygon", "coordinates": [ [ [ [ 10.786148, 59.944035 ], [ 10.78819, 59.944734 ], [ 10.788417, 59.944376 ], [ 10.788905, 59.944461 ], [ 10.788621, 59.944808 ], [ 10.789563, 59.945092 ], [ 10.789801, 59.94491 ], [ 10.79064, 59.945149 ], [ 10.791038, 59.945496 ], [ 10.791355, 59.945234 ], [ 10.791662, 59.945234 ], [ 10.792115, 59.945933 ], [ 10.79283, 59.946575 ], [ 10.792422, 59.946666 ], [ 10.791355, 59.946177 ], [ 10.789143, 59.945359 ], [ 10.787691, 59.945189 ], [ 10.786601, 59.944899 ], [ 10.786681, 59.944717 ], [ 10.786738, 59.944649 ], [ 10.786851, 59.944569 ], [ 10.785955, 59.944342 ], [ 10.786148, 59.944035 ] ] ] ] } },
{ "type": "Feature", "properties": { "fid": 58.0, "id": "741", "fill": null, "fornavn_e": "Bjørn H" }, "geometry": { "type": "MultiPolygon", "coordinates": [ [ [ [ 10.795928, 59.968882 ], [ 10.795914, 59.967664 ], [ 10.795648, 59.966801 ], [ 10.794997, 59.966526 ], [ 10.795322, 59.965264 ], [ 10.795404, 59.964235 ], [ 10.795404, 59.963584 ], [ 10.795221, 59.963217 ], [ 10.7952, 59.963034 ], [ 10.795058, 59.962616 ], [ 10.795099, 59.962412 ], [ 10.795241, 59.962158 ], [ 10.795302, 59.962005 ], [ 10.79577, 59.961425 ], [ 10.797203, 59.961586 ], [ 10.797127, 59.962218 ], [ 10.797329, 59.962446 ], [ 10.797329, 59.9628 ], [ 10.797481, 59.963205 ], [ 10.797986, 59.963951 ], [ 10.797885, 59.966089 ], [ 10.799048, 59.967315 ], [ 10.799048, 59.967986 ], [ 10.797203, 59.968795 ], [ 10.797152, 59.96877 ], [ 10.795928, 59.968882 ] ] ] ] } },
{ "type": "Feature", "properties": { "fid": 79.0, "id": "3", "fill": "rgba(130, 94, 47, 1)", "fornavn_e": "Borghild M. E" }, "geometry": { "type": "MultiPolygon", "coordinates": [ [ [ [ 10.794462, 59.950496 ], [ 10.795582, 59.950153 ], [ 10.796013, 59.950271 ], [ 10.796337, 59.950251 ], [ 10.796732, 59.950357 ], [ 10.796484, 59.950688 ], [ 10.796172, 59.95106 ], [ 10.795458, 59.951334 ], [ 10.794969, 59.951051 ], [ 10.794574, 59.950673 ], [ 10.794462, 59.950496 ] ] ] ] } },
{ "type": "Feature", "properties": { "fid": 38.0, "id": "41", "fill": null, "fornavn_e": "Britt  M" }, "geometry": { "type": "MultiPolygon", "coordinates": [ [ [ [ 10.785278, 59.960835 ], [ 10.784461, 59.960698 ], [ 10.785029, 59.960212 ], [ 10.785704, 59.960343 ], [ 10.785278, 59.960835 ] ] ] ] } },
{ "type": "Feature", "properties": { "fid": 76.0, "id": "91", "fill": null, "fornavn_e": "Britt M" }, "geometry": { "type": "MultiPolygon", "coordinates": [ [ [ [ 10.774267, 59.959294 ], [ 10.776017, 59.959185 ], [ 10.777953, 59.960577 ], [ 10.776329, 59.960999 ], [ 10.774267, 59.959294 ] ] ] ] } },
{ "type": "Feature", "properties": { "fid": 37.0, "id": "87", "fill": null, "fornavn_e": "Britt W  M" }, "geometry": { "type": "MultiPolygon", "coordinates": [ [ [ [ 10.785463, 59.966475 ], [ 10.783912, 59.965676 ], [ 10.784457, 59.965431 ], [ 10.785335, 59.965112 ], [ 10.786228, 59.965844 ], [ 10.786063, 59.966186 ], [ 10.786462, 59.966502 ], [ 10.788361, 59.967579 ], [ 10.787943, 59.967721 ], [ 10.785463, 59.966475 ] ] ] ] } },
{ "type": "Feature", "properties": { "fid": 26.0, "id": "118", "fill": null, "fornavn_e": "Einar P  K" }, "geometry": { "type": "MultiPolygon", "coordinates": [ [ [ [ 10.79262, 59.950989 ], [ 10.791555, 59.95014 ], [ 10.793131, 59.949933 ], [ 10.793457, 59.950314 ], [ 10.79262, 59.950989 ] ] ] ] } },
{ "type": "Feature", "properties": { "fid": 8.0, "id": "45", "fill": null, "fornavn_e": "Eivor  " }, "geometry": { "type": "MultiPolygon", "coordinates": [ [ [ [ 10.775678, 59.951479 ], [ 10.775996, 59.95228 ], [ 10.775394, 59.952661 ], [ 10.774078, 59.952956 ], [ 10.772081, 59.953456 ], [ 10.770164, 59.954194 ], [ 10.769996, 59.954023 ], [ 10.770108, 59.953968 ], [ 10.770609, 59.95371 ], [ 10.770324, 59.953436 ], [ 10.770277, 59.953263 ], [ 10.771957, 59.95274 ], [ 10.774532, 59.952263 ], [ 10.774498, 59.951786 ], [ 10.775678, 59.951479 ] ] ] ] } },
{ "type": "Feature", "properties": { "fid": 2.0, "id": "101", "fill": null, "fornavn_e": "Eli V" }, "geometry": { "type": "MultiPolygon", "coordinates": [ [ [ [ 10.790683, 59.961864 ], [ 10.790254, 59.962839 ], [ 10.790009, 59.962981 ], [ 10.789771, 59.962689 ], [ 10.789985, 59.961835 ], [ 10.790348, 59.961805 ], [ 10.790683, 59.961864 ] ] ] ] } },
{ "type": "Feature", "properties": { "fid": null, "id": null, "fill": null, "fornavn_e": "Ellen B" }, "geometry": { "type": "Polygon", "coordinates": [ [ [ 10.787707, 59.961604 ], [ 10.787699, 59.961345 ], [ 10.788996, 59.960887 ], [ 10.789761, 59.960407 ], [ 10.790533, 59.960568 ], [ 10.790541, 59.960966 ], [ 10.790886, 59.961266 ], [ 10.790758, 59.961762 ], [ 10.789934, 59.961754 ], [ 10.789671, 59.962212 ], [ 10.787707, 59.961604 ] ] ] } },
{ "type": "Feature", "properties": { "fid": 9.0, "id": "65", "fill": null, "fornavn_e": "Ellen T" }, "geometry": { "type": "MultiPolygon", "coordinates": [ [ [ [ 10.768984, 59.953252 ], [ 10.769279, 59.953649 ], [ 10.769756, 59.953485 ], [ 10.770075, 59.953895 ], [ 10.769846, 59.953967 ], [ 10.76979, 59.954092 ], [ 10.769835, 59.954428 ], [ 10.770096, 59.954507 ], [ 10.770357, 59.954604 ], [ 10.770538, 59.954723 ], [ 10.770833, 59.954785 ], [ 10.771049, 59.954808 ], [ 10.771185, 59.954842 ], [ 10.771446, 59.954973 ], [ 10.771535, 59.954962 ], [ 10.771552, 59.954988 ], [ 10.771258, 59.955084 ], [ 10.770992, 59.955081 ], [ 10.769778, 59.955745 ], [ 10.769302, 59.955757 ], [ 10.767623, 59.955371 ], [ 10.766953, 59.954706 ], [ 10.767078, 59.953558 ], [ 10.768984, 59.953252 ] ] ] ] } },
{ "type": "Feature", "properties": { "fid": 13.0, "id": "94", "fill": null, "fornavn_e": "Grete E" }, "geometry": { "type": "MultiPolygon", "coordinates": [ [ [ [ 10.787781, 59.952886 ], [ 10.788076, 59.952028 ], [ 10.788076, 59.952039 ], [ 10.78836, 59.951784 ], [ 10.792705, 59.951607 ], [ 10.793534, 59.951732 ], [ 10.79401, 59.951357 ], [ 10.793726, 59.950602 ], [ 10.794055, 59.950352 ], [ 10.79519, 59.95134 ], [ 10.795916, 59.951693 ], [ 10.796688, 59.952193 ], [ 10.796132, 59.952494 ], [ 10.795315, 59.952994 ], [ 10.795224, 59.953528 ], [ 10.79401, 59.953726 ], [ 10.792615, 59.95379 ], [ 10.792512, 59.953442 ], [ 10.792331, 59.953158 ], [ 10.791106, 59.953011 ], [ 10.787781, 59.952886 ] ] ] ] } },
{ "type": "Feature", "properties": { "fid": 59.0, "id": "88", "fill": null, "fornavn_e": "Grete S" }, "geometry": { "type": "MultiPolygon", "coordinates": [ [ [ [ 10.77585, 59.963116 ], [ 10.775547, 59.963066 ], [ 10.77355, 59.961535 ], [ 10.775117, 59.961143 ], [ 10.777012, 59.961206 ], [ 10.778048, 59.961105 ], [ 10.779393, 59.960907 ], [ 10.779644, 59.961581 ], [ 10.776204, 59.962749 ], [ 10.775951, 59.963091 ], [ 10.77585, 59.963116 ] ] ] ] } },
{ "type": "Feature", "properties": { "fid": 54.0, "id": "46", "fill": null, "fornavn_e": "Grethe B" }, "geometry": { "type": "MultiPolygon", "coordinates": [ [ [ [ 10.78586, 59.955236 ], [ 10.785504, 59.95205 ], [ 10.785973, 59.952146 ], [ 10.786217, 59.952355 ], [ 10.786747, 59.952868 ], [ 10.78779, 59.952929 ], [ 10.789371, 59.95299 ], [ 10.790484, 59.953016 ], [ 10.792265, 59.95319 ], [ 10.792491, 59.953508 ], [ 10.792544, 59.953805 ], [ 10.793029, 59.953846 ], [ 10.792938, 59.953982 ], [ 10.793004, 59.954187 ], [ 10.792761, 59.95507 ], [ 10.792683, 59.955518 ], [ 10.792448, 59.955901 ], [ 10.792387, 59.956219 ], [ 10.792257, 59.956323 ], [ 10.791353, 59.956006 ], [ 10.791214, 59.956014 ], [ 10.791005, 59.956319 ], [ 10.790432, 59.956197 ], [ 10.789762, 59.956001 ], [ 10.789406, 59.956349 ], [ 10.786703, 59.955866 ], [ 10.786747, 59.955662 ], [ 10.787233, 59.955762 ], [ 10.787268, 59.955914 ], [ 10.78752, 59.95594 ], [ 10.788076, 59.955845 ], [ 10.788546, 59.955875 ], [ 10.789145, 59.955571 ], [ 10.789901, 59.955288 ], [ 10.790597, 59.955035 ], [ 10.790979, 59.954757 ], [ 10.791075, 59.954504 ], [ 10.791422, 59.954313 ], [ 10.791735, 59.954039 ], [ 10.791779, 59.953878 ], [ 10.791422, 59.953708 ], [ 10.789945, 59.953552 ], [ 10.787694, 59.953569 ], [ 10.786547, 59.953552 ], [ 10.785834, 59.953634 ], [ 10.785843, 59.954113 ], [ 10.78639, 59.954122 ], [ 10.786425, 59.955192 ], [ 10.786147, 59.955253 ], [ 10.78586, 59.955236 ] ] ] ] } },
{ "type": "Feature", "properties": { "fid": 28.0, "id": "90", "fill": null, "fornavn_e": "Haakon L (Kurv)" }, "geometry": { "type": "Polygon", "coordinates": [ [ [ 10.791359, 59.960885 ], [ 10.793538, 59.960731 ], [ 10.792805, 59.961294 ], [ 10.791691, 59.962248 ], [ 10.791058, 59.962859 ], [ 10.790391, 59.963487 ], [ 10.790127, 59.963254 ], [ 10.79078, 59.962051 ], [ 10.790954, 59.961377 ], [ 10.791359, 59.960885 ] ] ] } },
{ "type": "Feature", "properties": { "fid": 27.0, "id": "75", "fill": null, "fornavn_e": "Haakon L (Kj.v)" }, "geometry": { "type": "MultiPolygon", "coordinates": [ [ [ [ 10.782771, 59.942937 ], [ 10.783151, 59.942136 ], [ 10.785988, 59.943862 ], [ 10.786023, 59.94399 ], [ 10.785899, 59.944217 ], [ 10.785824, 59.944379 ], [ 10.785651, 59.944385 ], [ 10.785151, 59.943971 ], [ 10.782771, 59.942937 ] ] ] ] } },
{ "type": "Feature", "properties": { "fid": 31.0, "id": "78", "fill": null, "fornavn_e": "Haakon L (Engv)" }, "geometry": { "type": "MultiPolygon", "coordinates": [ [ [ [ 10.780724, 59.943282 ], [ 10.782418, 59.943507 ], [ 10.781518, 59.945168 ], [ 10.785297, 59.945631 ], [ 10.784917, 59.946355 ], [ 10.781186, 59.945981 ], [ 10.780653, 59.947055 ], [ 10.779848, 59.947108 ], [ 10.779172, 59.946562 ], [ 10.780724, 59.943282 ] ] ] ] } },
{ "type": "Feature", "properties": { "fid": 6.0, "id": "47", "fill": null, "fornavn_e": "Hanne B" }, "geometry": { "type": "MultiPolygon", "coordinates": [ [ [ [ 10.785759, 59.946177 ], [ 10.786514, 59.946211 ], [ 10.786445, 59.946363 ], [ 10.787151, 59.946854 ], [ 10.787455, 59.947237 ], [ 10.787611, 59.947703 ], [ 10.78767, 59.948091 ], [ 10.788543, 59.948057 ], [ 10.788817, 59.948268 ], [ 10.789013, 59.948243 ], [ 10.789807, 59.94786 ], [ 10.790228, 59.949195 ], [ 10.790081, 59.949902 ], [ 10.789895, 59.950457 ], [ 10.789787, 59.950658 ], [ 10.790209, 59.950942 ], [ 10.789131, 59.950962 ], [ 10.78767, 59.950795 ], [ 10.787905, 59.950471 ], [ 10.78815, 59.9503 ], [ 10.7877, 59.950079 ], [ 10.787366, 59.94973 ], [ 10.7872, 59.949446 ], [ 10.786622, 59.949323 ], [ 10.786298, 59.948984 ], [ 10.786651, 59.948857 ], [ 10.787335, 59.948251 ], [ 10.787512, 59.947858 ], [ 10.787319, 59.94766 ], [ 10.787199, 59.947527 ], [ 10.786919, 59.947435 ], [ 10.78721, 59.947188 ], [ 10.787268, 59.947041 ], [ 10.786867, 59.946697 ], [ 10.786445, 59.946643 ], [ 10.785612, 59.946525 ], [ 10.785759, 59.946177 ] ] ] ] } },
{ "type": "Feature", "properties": { "fid": 69.0, "id": "50", "fill": null, "fornavn_e": "Hans O E" }, "geometry": { "type": "MultiPolygon", "coordinates": [ [ [ [ 10.770582, 59.954132 ], [ 10.771108, 59.953892 ], [ 10.772869, 59.953335 ], [ 10.77521, 59.952826 ], [ 10.775605, 59.952754 ], [ 10.775546, 59.952694 ], [ 10.775629, 59.952832 ], [ 10.775713, 59.952892 ], [ 10.775881, 59.95288 ], [ 10.77606, 59.952844 ], [ 10.775988, 59.952964 ], [ 10.775829, 59.953059 ], [ 10.774736, 59.953316 ], [ 10.77106, 59.954467 ], [ 10.770582, 59.954132 ] ] ] ] } },
{ "type": "Feature", "properties": { "fid": 50.0, "id": "99", "fill": null, "fornavn_e": "Helen  K" }, "geometry": { "type": "MultiPolygon", "coordinates": [ [ [ [ 10.787767, 59.948044 ], [ 10.787703, 59.947595 ], [ 10.787415, 59.946942 ], [ 10.787119, 59.946694 ], [ 10.787575, 59.946345 ], [ 10.788696, 59.946565 ], [ 10.789424, 59.94693 ], [ 10.789696, 59.947271 ], [ 10.789744, 59.94774 ], [ 10.789488, 59.94798 ], [ 10.789008, 59.948193 ], [ 10.788848, 59.948225 ], [ 10.78864, 59.948024 ], [ 10.787767, 59.948044 ] ] ] ] } },
{ "type": "Feature", "properties": { "fid": 74.0, "id": "61", "fill": null, "fornavn_e": "Helge J" }, "geometry": { "type": "MultiPolygon", "coordinates": [ [ [ [ 10.785456, 59.96687 ], [ 10.781296, 59.96564 ], [ 10.781953, 59.965107 ], [ 10.782495, 59.964264 ], [ 10.783521, 59.964284 ], [ 10.783598, 59.964468 ], [ 10.784372, 59.96439 ], [ 10.784604, 59.964729 ], [ 10.785069, 59.96502 ], [ 10.78383, 59.965678 ], [ 10.785688, 59.966656 ], [ 10.785456, 59.96687 ] ] ] ] } },
{ "type": "Feature", "properties": { "fid": 71.0, "id": "2", "fill": null, "fornavn_e": "Hilde J" }, "geometry": { "type": "MultiPolygon", "coordinates": [ [ [ [ 10.791464, 59.963833 ], [ 10.7904, 59.963688 ], [ 10.791464, 59.962594 ], [ 10.792799, 59.961504 ], [ 10.793941, 59.960676 ], [ 10.794405, 59.960821 ], [ 10.794695, 59.961423 ], [ 10.794435, 59.961789 ], [ 10.794025, 59.961783 ], [ 10.793542, 59.961976 ], [ 10.79336, 59.962138 ], [ 10.792789, 59.962545 ], [ 10.792591, 59.962967 ], [ 10.791464, 59.963833 ] ] ] ] } },
{ "type": "Feature", "properties": { "fid": 60.0, "id": "163", "fill": null, "fornavn_e": "Ingrid L" }, "geometry": { "type": "MultiPolygon", "coordinates": [ [ [ [ 10.797557, 59.963217 ], [ 10.797443, 59.962889 ], [ 10.797418, 59.96249 ], [ 10.797393, 59.962452 ], [ 10.797216, 59.962193 ], [ 10.797279, 59.961434 ], [ 10.797405, 59.960801 ], [ 10.797582, 59.960226 ], [ 10.797784, 59.9596 ], [ 10.797986, 59.959094 ], [ 10.798087, 59.958898 ], [ 10.798189, 59.95891 ], [ 10.798239, 59.959593 ], [ 10.798113, 59.960213 ], [ 10.799616, 59.96213 ], [ 10.799591, 59.962737 ], [ 10.79882, 59.963002 ], [ 10.797557, 59.963217 ] ] ] ] } },
{ "type": "Feature", "properties": { "fid": 12.0, "id": "89", "fill": null, "fornavn_e": "Ingunn B" }, "geometry": { "type": "MultiPolygon", "coordinates": [ [ [ [ 10.787112, 59.955959 ], [ 10.786431, 59.956777 ], [ 10.786647, 59.957021 ], [ 10.787203, 59.957106 ], [ 10.787566, 59.956851 ], [ 10.787906, 59.956459 ], [ 10.787668, 59.956322 ], [ 10.787725, 59.956067 ], [ 10.78895, 59.956328 ], [ 10.788961, 59.956567 ], [ 10.789222, 59.956743 ], [ 10.789052, 59.95693 ], [ 10.788825, 59.957356 ], [ 10.788553, 59.957737 ], [ 10.788337, 59.958117 ], [ 10.788088, 59.958577 ], [ 10.787815, 59.9591 ], [ 10.788394, 59.959236 ], [ 10.788315, 59.959458 ], [ 10.786783, 59.959458 ], [ 10.786772, 59.959691 ], [ 10.786772, 59.959713 ], [ 10.786817, 59.959725 ], [ 10.786726, 59.960134 ], [ 10.784797, 59.960048 ], [ 10.785229, 59.959373 ], [ 10.785819, 59.957822 ], [ 10.78583, 59.95626 ], [ 10.787112, 59.955959 ] ] ] ] } },
{ "type": "Feature", "properties": { "fid": 41.0, "id": "128", "fill": null, "fornavn_e": "James S" }, "geometry": { "type": "MultiPolygon", "coordinates": [ [ [ [ 10.797455, 59.950376 ], [ 10.798036, 59.949795 ], [ 10.798438, 59.949569 ], [ 10.799179, 59.949697 ], [ 10.798823, 59.950245 ], [ 10.798314, 59.950509 ], [ 10.797668, 59.950536 ], [ 10.797455, 59.950376 ] ] ] ] } },
{ "type": "Feature", "properties": { "fid": 16.0, "id": "113", "fill": null, "fornavn_e": "Jan H. H" }, "geometry": { "type": "MultiPolygon", "coordinates": [ [ [ [ 10.775823, 59.968886 ], [ 10.77622, 59.96842 ], [ 10.776946, 59.967756 ], [ 10.777128, 59.967029 ], [ 10.780407, 59.967574 ], [ 10.779272, 59.968517 ], [ 10.775823, 59.968886 ] ] ] ] } },
{ "type": "Feature", "properties": { "fid": 23.0, "id": "116", "fill": null, "fornavn_e": "Jeannette  B" }, "geometry": { "type": "MultiPolygon", "coordinates": [ [ [ [ 10.790218, 59.948467 ], [ 10.79003, 59.947634 ], [ 10.791408, 59.946757 ], [ 10.792107, 59.94655 ], [ 10.792462, 59.946698 ], [ 10.793003, 59.94657 ], [ 10.792688, 59.946303 ], [ 10.793623, 59.946264 ], [ 10.795011, 59.946604 ], [ 10.795552, 59.947053 ], [ 10.795857, 59.947161 ], [ 10.795532, 59.947999 ], [ 10.794086, 59.947876 ], [ 10.794292, 59.947043 ], [ 10.793013, 59.946895 ], [ 10.792452, 59.947166 ], [ 10.791684, 59.947615 ], [ 10.791025, 59.948073 ], [ 10.790562, 59.948413 ], [ 10.790218, 59.948467 ] ] ] ] } },
{ "type": "Feature", "properties": { "fid": 62.0, "id": "59", "fill": null, "fornavn_e": "Joanna D" }, "geometry": { "type": "MultiPolygon", "coordinates": [ [ [ [ 10.785849, 59.955711 ], [ 10.785855, 59.955269 ], [ 10.786152, 59.955286 ], [ 10.786626, 59.955218 ], [ 10.786679, 59.955829 ], [ 10.785849, 59.955711 ] ] ] ] } },
{ "type": "Feature", "properties": { "fid": 66.0, "id": "77", "fill": null, "fornavn_e": "Jorid H" }, "geometry": { "type": "MultiPolygon", "coordinates": [ [ [ [ 10.797387, 59.952924 ], [ 10.797027, 59.952359 ], [ 10.795962, 59.951577 ], [ 10.795751, 59.951478 ], [ 10.796544, 59.951087 ], [ 10.797089, 59.950758 ], [ 10.797697, 59.950615 ], [ 10.798626, 59.950565 ], [ 10.799072, 59.950634 ], [ 10.799779, 59.950659 ], [ 10.799295, 59.950553 ], [ 10.799072, 59.950317 ], [ 10.800684, 59.94973 ], [ 10.800857, 59.949839 ], [ 10.801092, 59.949877 ], [ 10.800522, 59.950826 ], [ 10.799791, 59.951558 ], [ 10.798651, 59.952328 ], [ 10.797969, 59.952719 ], [ 10.797387, 59.952924 ] ] ] ] } },
{ "type": "Feature", "properties": { "fid": 36.0, "id": "42", "fill": null, "fornavn_e": "Kari S" }, "geometry": { "type": "MultiPolygon", "coordinates": [ [ [ [ 10.78831, 59.959504 ], [ 10.788417, 59.959509 ], [ 10.788453, 59.959195 ], [ 10.787931, 59.959041 ], [ 10.7885, 59.957974 ], [ 10.789459, 59.956432 ], [ 10.789744, 59.956064 ], [ 10.791059, 59.956408 ], [ 10.791307, 59.956046 ], [ 10.79267, 59.956515 ], [ 10.792693, 59.956995 ], [ 10.793285, 59.957102 ], [ 10.793108, 59.957475 ], [ 10.79357, 59.957582 ], [ 10.792622, 59.958982 ], [ 10.790774, 59.95881 ], [ 10.789625, 59.960174 ], [ 10.7885, 59.960043 ], [ 10.78831, 59.959504 ] ] ] ] } },
{ "type": "Feature", "properties": { "fid": 24.0, "id": "117", "fill": null, "fornavn_e": "Karin K" }, "geometry": { "type": "MultiPolygon", "coordinates": [ [ [ [ 10.765055, 59.947955 ], [ 10.765085, 59.947536 ], [ 10.766994, 59.947718 ], [ 10.766738, 59.948103 ], [ 10.765597, 59.947942 ], [ 10.765055, 59.947955 ] ] ] ] } },
{ "type": "Feature", "properties": { "fid": 72.0, "id": "54", "fill": null, "fornavn_e": "Kirsten V" }, "geometry": { "type": "MultiPolygon", "coordinates": [ [ [ [ 10.775539, 59.969044 ], [ 10.775229, 59.968748 ], [ 10.775152, 59.968618 ], [ 10.774746, 59.968506 ], [ 10.773623, 59.967775 ], [ 10.773459, 59.967107 ], [ 10.774436, 59.966913 ], [ 10.776961, 59.967087 ], [ 10.776845, 59.967693 ], [ 10.776352, 59.96823 ], [ 10.775781, 59.968642 ], [ 10.775645, 59.96901 ], [ 10.775529, 59.969039 ], [ 10.775539, 59.969044 ] ] ] ] } },
{ "type": "Feature", "properties": { "fid": 51.0, "id": "83", "fill": null, "fornavn_e": "Kirsti S" }, "geometry": { "type": "MultiPolygon", "coordinates": [ [ [ [ 10.786759, 59.947447 ], [ 10.787119, 59.947575 ], [ 10.787391, 59.947788 ], [ 10.787351, 59.94796 ], [ 10.787207, 59.948245 ], [ 10.786847, 59.948597 ], [ 10.786615, 59.948826 ], [ 10.786303, 59.94893 ], [ 10.786238, 59.948994 ], [ 10.786527, 59.949343 ], [ 10.787175, 59.949531 ], [ 10.787375, 59.949892 ], [ 10.788015, 59.950317 ], [ 10.787799, 59.950521 ], [ 10.787623, 59.950782 ], [ 10.787071, 59.950874 ], [ 10.786535, 59.950962 ], [ 10.786038, 59.950409 ], [ 10.78559, 59.950092 ], [ 10.785566, 59.949924 ], [ 10.785254, 59.949712 ], [ 10.784926, 59.949868 ], [ 10.784318, 59.949972 ], [ 10.783989, 59.949664 ], [ 10.783508, 59.949148 ], [ 10.78419, 59.94891 ], [ 10.784015, 59.948673 ], [ 10.784094, 59.948437 ], [ 10.783829, 59.948161 ], [ 10.784902, 59.947772 ], [ 10.785438, 59.948233 ], [ 10.78559, 59.948056 ], [ 10.786062, 59.947872 ], [ 10.786759, 59.947447 ] ] ] ] } },
{ "type": "Feature", "properties": { "fid": 49.0, "id": "63", "fill": null, "fornavn_e": "Kjell K" }, "geometry": { "type": "MultiPolygon", "coordinates": [ [ [ [ 10.781662, 59.94514 ], [ 10.782464, 59.9436 ], [ 10.784358, 59.943723 ], [ 10.784926, 59.944064 ], [ 10.78449, 59.945457 ], [ 10.783621, 59.945383 ], [ 10.783717, 59.946241 ], [ 10.783997, 59.946529 ], [ 10.783021, 59.948321 ], [ 10.782365, 59.948253 ], [ 10.782349, 59.948024 ], [ 10.781732, 59.947924 ], [ 10.781134, 59.947861 ], [ 10.781054, 59.947354 ], [ 10.780808, 59.947014 ], [ 10.781222, 59.946035 ], [ 10.783165, 59.946177 ], [ 10.783421, 59.945335 ], [ 10.781662, 59.94514 ] ] ] ] } },
{ "type": "Feature", "properties": { "fid": 4.0, "id": "96", "fill": null, "fornavn_e": "Kjell Ø" }, "geometry": { "type": "MultiPolygon", "coordinates": [ [ [ [ 10.782105, 59.964771 ], [ 10.781808, 59.965104 ], [ 10.781266, 59.965456 ], [ 10.78047, 59.965262 ], [ 10.781019, 59.964943 ], [ 10.781727, 59.964937 ], [ 10.781979, 59.964666 ], [ 10.781821, 59.964137 ], [ 10.781131, 59.964111 ], [ 10.78047, 59.964264 ], [ 10.780036, 59.964194 ], [ 10.779824, 59.963938 ], [ 10.779245, 59.96397 ], [ 10.778722, 59.96376 ], [ 10.778415, 59.963875 ], [ 10.778045, 59.963855 ], [ 10.777028, 59.963973 ], [ 10.775981, 59.963283 ], [ 10.776271, 59.962769 ], [ 10.777356, 59.962424 ], [ 10.778086, 59.962677 ], [ 10.778926, 59.962527 ], [ 10.78047, 59.962086 ], [ 10.781402, 59.962214 ], [ 10.782608, 59.963016 ], [ 10.782925, 59.963193 ], [ 10.783366, 59.963011 ], [ 10.78357, 59.9632 ], [ 10.783413, 59.963756 ], [ 10.783469, 59.964064 ], [ 10.783491, 59.96416 ], [ 10.783501, 59.964266 ], [ 10.782423, 59.964246 ], [ 10.782414, 59.964317 ], [ 10.782353, 59.964389 ], [ 10.782105, 59.964771 ] ] ] ] } },
{ "type": "Feature", "properties": { "fid": 32.0, "id": "125", "fill": null, "fornavn_e": "Kjersti L" }, "geometry": { "type": "MultiPolygon", "coordinates": [ [ [ [ 10.795116, 59.946592 ], [ 10.795211, 59.946372 ], [ 10.796088, 59.946479 ], [ 10.797438, 59.946776 ], [ 10.797225, 59.947636 ], [ 10.796609, 59.947814 ], [ 10.796206, 59.948116 ], [ 10.795721, 59.947992 ], [ 10.796064, 59.947191 ], [ 10.795602, 59.947025 ], [ 10.795116, 59.946592 ] ] ] ] } },
{ "type": "Feature", "properties": { "fid": 21.0, "id": "44", "fill": null, "fornavn_e": "Kjetil  " }, "geometry": { "type": "MultiPolygon", "coordinates": [ [ [ [ 10.780552, 59.947679 ], [ 10.780985, 59.94795 ], [ 10.780218, 59.948655 ], [ 10.78068, 59.948832 ], [ 10.780592, 59.949202 ], [ 10.779145, 59.950774 ], [ 10.778938, 59.95106 ], [ 10.779105, 59.951193 ], [ 10.779657, 59.951286 ], [ 10.780021, 59.951523 ], [ 10.779696, 59.951809 ], [ 10.778869, 59.952065 ], [ 10.778062, 59.952785 ], [ 10.778446, 59.953184 ], [ 10.776655, 59.953889 ], [ 10.775887, 59.954391 ], [ 10.774962, 59.954638 ], [ 10.773968, 59.953583 ], [ 10.774947, 59.953265 ], [ 10.775628, 59.953157 ], [ 10.777206, 59.952339 ], [ 10.776842, 59.951877 ], [ 10.776853, 59.951563 ], [ 10.77696, 59.951065 ], [ 10.777501, 59.950941 ], [ 10.777511, 59.950917 ], [ 10.777491, 59.950863 ], [ 10.777521, 59.950394 ], [ 10.778121, 59.950123 ], [ 10.779164, 59.949049 ], [ 10.78006, 59.947876 ], [ 10.780552, 59.947679 ] ] ] ] } },
{ "type": "Feature", "properties": { "fid": 35.0, "id": "48", "fill": null, "fornavn_e": "Kristin Å" }, "geometry": { "type": "MultiPolygon", "coordinates": [ [ [ [ 10.780729, 59.953531 ], [ 10.782115, 59.953081 ], [ 10.783205, 59.952772 ], [ 10.783951, 59.952594 ], [ 10.784899, 59.952316 ], [ 10.78529, 59.952316 ], [ 10.785302, 59.953134 ], [ 10.784401, 59.953128 ], [ 10.782068, 59.953893 ], [ 10.782826, 59.955987 ], [ 10.783075, 59.956111 ], [ 10.783584, 59.956076 ], [ 10.783631, 59.955827 ], [ 10.785029, 59.955489 ], [ 10.785077, 59.955079 ], [ 10.785539, 59.955091 ], [ 10.78555, 59.9554 ], [ 10.78497, 59.955548 ], [ 10.7851, 59.956224 ], [ 10.784105, 59.956497 ], [ 10.783975, 59.956497 ], [ 10.783762, 59.956491 ], [ 10.783702, 59.956586 ], [ 10.783347, 59.956681 ], [ 10.78253, 59.956823 ], [ 10.782257, 59.956509 ], [ 10.782068, 59.956491 ], [ 10.781701, 59.956206 ], [ 10.780788, 59.953994 ], [ 10.780729, 59.953531 ] ] ] ] } },
{ "type": "Feature", "properties": { "fid": 56.0, "id": "48", "fill": null, "fornavn_e": "Kristin Å" }, "geometry": { "type": "MultiPolygon", "coordinates": [ [ [ [ 10.78593, 59.953678 ], [ 10.786431, 59.953589 ], [ 10.789999, 59.95361 ], [ 10.791418, 59.953757 ], [ 10.791522, 59.954195 ], [ 10.791084, 59.954425 ], [ 10.790917, 59.954608 ], [ 10.790844, 59.954791 ], [ 10.790322, 59.955094 ], [ 10.789404, 59.955428 ], [ 10.788528, 59.955783 ], [ 10.788392, 59.955846 ], [ 10.787662, 59.955882 ], [ 10.78761, 59.956159 ], [ 10.787589, 59.956337 ], [ 10.787808, 59.956488 ], [ 10.787527, 59.956775 ], [ 10.787349, 59.956974 ], [ 10.787172, 59.957068 ], [ 10.786744, 59.956974 ], [ 10.786577, 59.956807 ], [ 10.786786, 59.956504 ], [ 10.787151, 59.956039 ], [ 10.787433, 59.95606 ], [ 10.787485, 59.955919 ], [ 10.787318, 59.955908 ], [ 10.787328, 59.955715 ], [ 10.786942, 59.955658 ], [ 10.786744, 59.955595 ], [ 10.786723, 59.955391 ], [ 10.786723, 59.955229 ], [ 10.786556, 59.955146 ], [ 10.786483, 59.954785 ], [ 10.786462, 59.954096 ], [ 10.785889, 59.954065 ], [ 10.78593, 59.953678 ] ] ] ] } },
{ "type": "Feature", "properties": { "fid": 78.0, "id": "74", "fill": null, "fornavn_e": "Liv H" }, "geometry": { "type": "MultiPolygon", "coordinates": [ [ [ [ 10.795434, 59.967164 ], [ 10.794754, 59.96719 ], [ 10.793945, 59.966595 ], [ 10.794007, 59.965726 ], [ 10.79287, 59.965893 ], [ 10.792857, 59.965545 ], [ 10.793109, 59.964584 ], [ 10.792301, 59.964419 ], [ 10.792478, 59.964204 ], [ 10.793059, 59.964225 ], [ 10.793337, 59.963787 ], [ 10.793918, 59.963331 ], [ 10.793792, 59.963116 ], [ 10.793413, 59.963091 ], [ 10.793539, 59.962775 ], [ 10.794095, 59.962534 ], [ 10.794095, 59.961826 ], [ 10.79455, 59.961775 ], [ 10.794802, 59.961548 ], [ 10.795077, 59.961583 ], [ 10.7949, 59.962975 ], [ 10.795283, 59.963436 ], [ 10.79514, 59.963929 ], [ 10.795289, 59.964344 ], [ 10.795266, 59.96494 ], [ 10.794946, 59.966303 ], [ 10.795037, 59.966578 ], [ 10.795609, 59.96683 ], [ 10.795434, 59.967164 ] ] ] ] } },
{ "type": "Feature", "properties": { "fid": 73.0, "id": "62", "fill": null, "fornavn_e": "Liv T  K" }, "geometry": { "type": "MultiPolygon", "coordinates": [ [ [ [ 10.773401, 59.961717 ], [ 10.776303, 59.963799 ], [ 10.778645, 59.964894 ], [ 10.781179, 59.965678 ], [ 10.785011, 59.96687 ], [ 10.784179, 59.967664 ], [ 10.780734, 59.967518 ], [ 10.778025, 59.966821 ], [ 10.776787, 59.965669 ], [ 10.774504, 59.963945 ], [ 10.772453, 59.963286 ], [ 10.77224, 59.962259 ], [ 10.772298, 59.961978 ], [ 10.773401, 59.961717 ] ] ] ] } },
{ "type": "Feature", "properties": { "fid": 40.0, "id": "127", "fill": null, "fornavn_e": "Magne R" }, "geometry": { "type": "MultiPolygon", "coordinates": [ [ [ [ 10.794375, 59.950355 ], [ 10.794014, 59.949795 ], [ 10.794885, 59.949726 ], [ 10.795347, 59.949439 ], [ 10.795465, 59.9487 ], [ 10.796253, 59.948614 ], [ 10.795886, 59.94981 ], [ 10.795299, 59.950213 ], [ 10.794742, 59.950346 ], [ 10.794375, 59.950355 ] ] ] ] } },
{ "type": "Feature", "properties": { "fid": 63.0, "id": "82", "fill": null, "fornavn_e": "Magnhild S" }, "geometry": { "type": "MultiPolygon", "coordinates": [ [ [ [ 10.795292, 59.956423 ], [ 10.795738, 59.955517 ], [ 10.795738, 59.955455 ], [ 10.795565, 59.955213 ], [ 10.79497, 59.954171 ], [ 10.795119, 59.953631 ], [ 10.795503, 59.95347 ], [ 10.79616, 59.953457 ], [ 10.796631, 59.954481 ], [ 10.797052, 59.955679 ], [ 10.797003, 59.956659 ], [ 10.795292, 59.956423 ] ] ] ] } },
{ "type": "Feature", "properties": { "fid": 48.0, "id": "49", "fill": null, "fornavn_e": "Malene R" }, "geometry": { "type": "MultiPolygon", "coordinates": [ [ [ [ 10.777347, 59.95092 ], [ 10.77693, 59.950992 ], [ 10.776786, 59.9508 ], [ 10.777475, 59.950143 ], [ 10.778291, 59.948876 ], [ 10.779347, 59.947858 ], [ 10.779163, 59.947407 ], [ 10.779243, 59.946978 ], [ 10.779961, 59.946993 ], [ 10.780772, 59.94709 ], [ 10.780996, 59.947363 ], [ 10.78102, 59.9477 ], [ 10.78122, 59.94793 ], [ 10.781508, 59.94793 ], [ 10.782181, 59.948036 ], [ 10.781989, 59.94862 ], [ 10.782229, 59.9487 ], [ 10.782453, 59.948668 ], [ 10.782789, 59.948587 ], [ 10.783269, 59.949028 ], [ 10.783493, 59.949309 ], [ 10.783893, 59.949646 ], [ 10.783493, 59.949902 ], [ 10.783061, 59.949678 ], [ 10.782325, 59.949838 ], [ 10.782005, 59.949589 ], [ 10.781732, 59.949109 ], [ 10.781893, 59.948772 ], [ 10.781108, 59.948066 ], [ 10.78106, 59.947858 ], [ 10.780644, 59.947553 ], [ 10.780308, 59.94773 ], [ 10.779876, 59.947818 ], [ 10.779251, 59.948756 ], [ 10.778403, 59.94971 ], [ 10.778019, 59.950046 ], [ 10.777443, 59.950367 ], [ 10.77725, 59.950591 ], [ 10.777347, 59.95092 ] ] ] ] } },
{ "type": "Feature", "properties": { "fid": 46.0, "id": "162", "fill": null, "fornavn_e": "Marit A" }, "geometry": { "type": "MultiPolygon", "coordinates": [ [ [ [ 10.79404, 59.948835 ], [ 10.79351, 59.94817 ], [ 10.794435, 59.947985 ], [ 10.796014, 59.948107 ], [ 10.795888, 59.948579 ], [ 10.79404, 59.948835 ] ] ] ] } },
{ "type": "Feature", "properties": { "fid": 47.0, "id": "1620", "fill": null, "fornavn_e": "Marit A" }, "geometry": { "type": "MultiPolygon", "coordinates": [ [ [ [ 10.77216, 59.955529 ], [ 10.77216, 59.954912 ], [ 10.774193, 59.95431 ], [ 10.775106, 59.955408 ], [ 10.77216, 59.955529 ] ] ] ] } },
{ "type": "Feature", "properties": { "fid": 77.0, "id": "30", "fill": null, "fornavn_e": "Marit M" }, "geometry": { "type": "MultiPolygon", "coordinates": [ [ [ [ 10.778133, 59.962605 ], [ 10.777797, 59.962381 ], [ 10.780039, 59.961674 ], [ 10.780779, 59.96191 ], [ 10.778133, 59.962605 ] ] ] ] } },
{ "type": "Feature", "properties": { "fid": 65.0, "id": "146", "fill": null, "fornavn_e": "Marit S / Kari L " }, "geometry": { "type": "MultiPolygon", "coordinates": [ [ [ [ 10.795317, 59.953445 ], [ 10.795429, 59.952986 ], [ 10.796767, 59.952291 ], [ 10.797065, 59.952607 ], [ 10.797387, 59.953085 ], [ 10.796965, 59.953296 ], [ 10.79637, 59.953408 ], [ 10.795317, 59.953445 ] ] ] ] } },
{ "type": "Feature", "properties": { "fid": 55.0, "id": "131", "fill": null, "fornavn_e": "Marit T" }, "geometry": { "type": "MultiPolygon", "coordinates": [ [ [ [ 10.778032, 59.961001 ], [ 10.777879, 59.96079 ], [ 10.778278, 59.960459 ], [ 10.773556, 59.958031 ], [ 10.77567, 59.957507 ], [ 10.776314, 59.958001 ], [ 10.776767, 59.958348 ], [ 10.777099, 59.958212 ], [ 10.777673, 59.958369 ], [ 10.778045, 59.95855 ], [ 10.778387, 59.958883 ], [ 10.778508, 59.959266 ], [ 10.778287, 59.959628 ], [ 10.778599, 59.959951 ], [ 10.779504, 59.96053 ], [ 10.78036, 59.960077 ], [ 10.781167, 59.959971 ], [ 10.781614, 59.959856 ], [ 10.78236, 59.959623 ], [ 10.78361, 59.959594 ], [ 10.783961, 59.959984 ], [ 10.784063, 59.96006 ], [ 10.784612, 59.960108 ], [ 10.78373, 59.961249 ], [ 10.783316, 59.961137 ], [ 10.783478, 59.960821 ], [ 10.782705, 59.960769 ], [ 10.781767, 59.960874 ], [ 10.780893, 59.960699 ], [ 10.780461, 59.9605 ], [ 10.779274, 59.960887 ], [ 10.778032, 59.961001 ] ] ] ] } },
{ "type": "Feature", "properties": { "fid": 17.0, "id": "85", "fill": null, "fornavn_e": "Marthe T" }, "geometry": { "type": "MultiPolygon", "coordinates": [ [ [ [ 10.766334, 59.953241 ], [ 10.76715, 59.952537 ], [ 10.767898, 59.952154 ], [ 10.768456, 59.951 ], [ 10.770111, 59.950867 ], [ 10.77125, 59.950892 ], [ 10.772057, 59.950054 ], [ 10.772947, 59.94935 ], [ 10.774811, 59.950496 ], [ 10.775077, 59.951008 ], [ 10.774045, 59.951291 ], [ 10.771974, 59.951621 ], [ 10.770311, 59.951904 ], [ 10.769146, 59.952204 ], [ 10.767965, 59.952745 ], [ 10.767283, 59.953274 ], [ 10.766334, 59.953241 ] ] ] ] } },
{ "type": "Feature", "properties": { "fid": 43.0, "id": "160", "fill": null, "fornavn_e": "May B P" }, "geometry": { "type": "MultiPolygon", "coordinates": [ [ [ [ 10.79465, 59.960173 ], [ 10.795311, 59.959279 ], [ 10.795939, 59.959375 ], [ 10.795658, 59.960446 ], [ 10.79465, 59.960173 ] ] ] ] } },
{ "type": "Feature", "properties": { "fid": 34.0, "id": "43", "fill": null, "fornavn_e": "Nils M Ø" }, "geometry": { "type": "MultiPolygon", "coordinates": [ [ [ [ 10.786104, 59.960112 ], [ 10.786462, 59.960218 ], [ 10.786344, 59.960556 ], [ 10.785918, 59.961232 ], [ 10.785728, 59.961558 ], [ 10.786237, 59.961831 ], [ 10.78664, 59.962199 ], [ 10.78959, 59.965353 ], [ 10.788488, 59.965549 ], [ 10.788053, 59.966515 ], [ 10.790423, 59.967849 ], [ 10.790241, 59.968294 ], [ 10.790703, 59.969076 ], [ 10.789957, 59.969082 ], [ 10.788618, 59.967636 ], [ 10.786107, 59.966177 ], [ 10.786292, 59.965808 ], [ 10.78555, 59.965145 ], [ 10.784449, 59.964357 ], [ 10.783643, 59.964422 ], [ 10.783406, 59.963734 ], [ 10.783584, 59.963254 ], [ 10.78401, 59.962797 ], [ 10.783797, 59.962477 ], [ 10.783634, 59.96212 ], [ 10.783673, 59.961748 ], [ 10.784483, 59.960769 ], [ 10.785332, 59.960881 ], [ 10.786104, 59.960112 ] ] ] ] } },
{ "type": "Feature", "properties": { "fid": 52.0, "id": "71", "fill": null, "fornavn_e": "Nina O" }, "geometry": { "type": "MultiPolygon", "coordinates": [ [ [ [ 10.78527, 59.949776 ], [ 10.785454, 59.949952 ], [ 10.785518, 59.950125 ], [ 10.785998, 59.950501 ], [ 10.786415, 59.951022 ], [ 10.785526, 59.951435 ], [ 10.785318, 59.951643 ], [ 10.785126, 59.951651 ], [ 10.784934, 59.951559 ], [ 10.784566, 59.951423 ], [ 10.784246, 59.951495 ], [ 10.784102, 59.951315 ], [ 10.783517, 59.951403 ], [ 10.783149, 59.951631 ], [ 10.782069, 59.951884 ], [ 10.781468, 59.95204 ], [ 10.781364, 59.952084 ], [ 10.78102, 59.952341 ], [ 10.778947, 59.953018 ], [ 10.778899, 59.953018 ], [ 10.778803, 59.953018 ], [ 10.778451, 59.952978 ], [ 10.778211, 59.952798 ], [ 10.778491, 59.952549 ], [ 10.778907, 59.952124 ], [ 10.780004, 59.95172 ], [ 10.780196, 59.951475 ], [ 10.779796, 59.951279 ], [ 10.779532, 59.951199 ], [ 10.779235, 59.951074 ], [ 10.779203, 59.95083 ], [ 10.780084, 59.94994 ], [ 10.780468, 59.949503 ], [ 10.780889, 59.949158 ], [ 10.781365, 59.949158 ], [ 10.781689, 59.949428 ], [ 10.782662, 59.94998 ], [ 10.78223, 59.949894 ], [ 10.782965, 59.949851 ], [ 10.784024, 59.949829 ], [ 10.784305, 59.950078 ], [ 10.78527, 59.949776 ] ] ] ] } },
{ "type": "Feature", "properties": { "fid": 14.0, "id": "111", "fill": null, "fornavn_e": "Ola F" }, "geometry": { "type": "MultiPolygon", "coordinates": [ [ [ [ 10.779865, 59.960706 ], [ 10.779967, 59.960684 ], [ 10.780464, 59.960555 ], [ 10.780849, 59.96072 ], [ 10.781723, 59.960936 ], [ 10.783243, 59.960794 ], [ 10.783425, 59.960936 ], [ 10.783226, 59.961182 ], [ 10.783604, 59.961245 ], [ 10.78322, 59.962327 ], [ 10.783333, 59.962409 ], [ 10.783785, 59.962826 ], [ 10.782953, 59.96316 ], [ 10.781927, 59.962486 ], [ 10.780747, 59.961697 ], [ 10.780293, 59.961703 ], [ 10.779556, 59.961396 ], [ 10.779393, 59.960896 ], [ 10.779865, 59.960706 ] ] ] ] } },
{ "type": "Feature", "properties": { "fid": 30.0, "id": "122", "fill": null, "fornavn_e": "Ole M L" }, "geometry": { "type": "MultiPolygon", "coordinates": [ [ [ [ 10.790331, 59.948745 ], [ 10.790781, 59.948686 ], [ 10.791515, 59.948579 ], [ 10.79212, 59.949101 ], [ 10.791172, 59.949439 ], [ 10.791207, 59.950127 ], [ 10.79135, 59.950169 ], [ 10.791492, 59.950157 ], [ 10.792617, 59.9511 ], [ 10.792368, 59.951587 ], [ 10.788305, 59.951753 ], [ 10.787938, 59.952031 ], [ 10.787855, 59.952375 ], [ 10.786422, 59.952405 ], [ 10.785616, 59.951794 ], [ 10.785036, 59.951901 ], [ 10.78474, 59.952275 ], [ 10.782086, 59.953028 ], [ 10.782015, 59.953022 ], [ 10.781684, 59.953152 ], [ 10.781186, 59.953324 ], [ 10.775382, 59.954985 ], [ 10.775086, 59.954683 ], [ 10.776021, 59.954428 ], [ 10.77659, 59.953995 ], [ 10.77704, 59.953805 ], [ 10.778509, 59.953224 ], [ 10.781056, 59.952375 ], [ 10.781482, 59.952097 ], [ 10.783046, 59.951729 ], [ 10.783745, 59.95142 ], [ 10.784029, 59.951367 ], [ 10.78423, 59.951557 ], [ 10.784716, 59.951509 ], [ 10.785178, 59.951705 ], [ 10.785901, 59.951462 ], [ 10.786303, 59.951337 ], [ 10.787227, 59.951041 ], [ 10.788234, 59.950928 ], [ 10.789265, 59.951017 ], [ 10.790355, 59.950999 ], [ 10.790094, 59.95075 ], [ 10.789975, 59.950537 ], [ 10.790224, 59.950204 ], [ 10.79039, 59.949273 ], [ 10.79039, 59.949279 ], [ 10.790331, 59.948745 ] ] ] ] } },
{ "type": "Feature", "properties": { "fid": 29.0, "id": "121", "fill": null, "fornavn_e": "Per S.  E" }, "geometry": { "type": "MultiPolygon", "coordinates": [ [ [ [ 10.782003, 59.941223 ], [ 10.782335, 59.940511 ], [ 10.78474, 59.939929 ], [ 10.786446, 59.940256 ], [ 10.787749, 59.941128 ], [ 10.787405, 59.941964 ], [ 10.786161, 59.941941 ], [ 10.785604, 59.942202 ], [ 10.785095, 59.94308 ], [ 10.782003, 59.941223 ] ] ] ] } },
{ "type": "Feature", "properties": { "fid": 64.0, "id": "164", "fill": null, "fornavn_e": "Ruth W" }, "geometry": { "type": "MultiPolygon", "coordinates": [ [ [ [ 10.796594, 59.954053 ], [ 10.796259, 59.953457 ], [ 10.796941, 59.953352 ], [ 10.797436, 59.953178 ], [ 10.797845, 59.953978 ], [ 10.796594, 59.954053 ] ] ] ] } },
{ "type": "Feature", "properties": { "fid": 7.0, "id": "119", "fill": null, "fornavn_e": "Sissel B" }, "geometry": { "type": "MultiPolygon", "coordinates": [ [ [ [ 10.790321, 59.944952 ], [ 10.791068, 59.943578 ], [ 10.791413, 59.942984 ], [ 10.791562, 59.942311 ], [ 10.791982, 59.941502 ], [ 10.793214, 59.941563 ], [ 10.794745, 59.941722 ], [ 10.794026, 59.943283 ], [ 10.792916, 59.943185 ], [ 10.792617, 59.943924 ], [ 10.792104, 59.944289 ], [ 10.792188, 59.944485 ], [ 10.791954, 59.944999 ], [ 10.791301, 59.945242 ], [ 10.791086, 59.94541 ], [ 10.790685, 59.945111 ], [ 10.790321, 59.944952 ] ] ] ] } },
{ "type": "Feature", "properties": { "fid": 20.0, "id": "115", "fill": null, "fornavn_e": "Solveig H" }, "geometry": { "type": "MultiPolygon", "coordinates": [ [ [ [ 10.798544, 59.954871 ], [ 10.797963, 59.953843 ], [ 10.799114, 59.953653 ], [ 10.799339, 59.954461 ], [ 10.798544, 59.954871 ] ] ] ] } },
{ "type": "Feature", "properties": { "fid": 18.0, "id": "55", "fill": null, "fornavn_e": "Stein E K" }, "geometry": { "type": "MultiPolygon", "coordinates": [ [ [ [ 10.797933, 59.948746 ], [ 10.798086, 59.948512 ], [ 10.797665, 59.948391 ], [ 10.797835, 59.948211 ], [ 10.798211, 59.948075 ], [ 10.798615, 59.948057 ], [ 10.799493, 59.948289 ], [ 10.800201, 59.948559 ], [ 10.800994, 59.948502 ], [ 10.80151, 59.94814 ], [ 10.802032, 59.947632 ], [ 10.803041, 59.94741 ], [ 10.803157, 59.947446 ], [ 10.803122, 59.947639 ], [ 10.804188, 59.947819 ], [ 10.804298, 59.948508 ], [ 10.804269, 59.948948 ], [ 10.804132, 59.949343 ], [ 10.803782, 59.949548 ], [ 10.802115, 59.94931 ], [ 10.801178, 59.949554 ], [ 10.799726, 59.950015 ], [ 10.799349, 59.949952 ], [ 10.799215, 59.949667 ], [ 10.798805, 59.949192 ], [ 10.798076, 59.949019 ], [ 10.797933, 59.948746 ] ] ] ] } },
{ "type": "Feature", "properties": { "fid": 44.0, "id": "5", "fill": null, "fornavn_e": "Tone B" }, "geometry": { "type": "MultiPolygon", "coordinates": [ [ [ [ 10.790807, 59.96785 ], [ 10.789563, 59.967026 ], [ 10.789073, 59.967034 ], [ 10.788707, 59.966765 ], [ 10.78914, 59.966653 ], [ 10.789618, 59.966457 ], [ 10.791514, 59.964239 ], [ 10.791709, 59.96406 ], [ 10.791832, 59.963977 ], [ 10.791865, 59.963834 ], [ 10.791891, 59.963545 ], [ 10.792659, 59.963 ], [ 10.792914, 59.962512 ], [ 10.793284, 59.962238 ], [ 10.793923, 59.961876 ], [ 10.794031, 59.962524 ], [ 10.793461, 59.962731 ], [ 10.793262, 59.963124 ], [ 10.793733, 59.963149 ], [ 10.793791, 59.963322 ], [ 10.793254, 59.963711 ], [ 10.792987, 59.964203 ], [ 10.792477, 59.964184 ], [ 10.792266, 59.964422 ], [ 10.792897, 59.964575 ], [ 10.792866, 59.964873 ], [ 10.792924, 59.965042 ], [ 10.792676, 59.965543 ], [ 10.792709, 59.965876 ], [ 10.792692, 59.966417 ], [ 10.791883, 59.967637 ], [ 10.790807, 59.96785 ] ] ] ] } },
{ "type": "Feature", "properties": { "fid": 80.0, "id": "4", "fill": null, "fornavn_e": "Tone O" }, "geometry": { "type": "MultiPolygon", "coordinates": [ [ [ [ 10.792291, 59.967199 ], [ 10.79314, 59.967288 ], [ 10.79376, 59.967296 ], [ 10.794163, 59.96756 ], [ 10.794552, 59.967212 ], [ 10.795409, 59.967183 ], [ 10.795734, 59.967748 ], [ 10.795782, 59.969418 ], [ 10.795129, 59.970526 ], [ 10.794485, 59.971175 ], [ 10.793618, 59.971055 ], [ 10.790792, 59.969373 ], [ 10.790178, 59.968232 ], [ 10.790817, 59.967872 ], [ 10.791916, 59.96767 ], [ 10.792291, 59.967199 ] ] ] ] } },
{ "type": "Feature", "properties": { "fid": 57.0, "id": "81", "fill": null, "fornavn_e": "Toril H" }, "geometry": { "type": "MultiPolygon", "coordinates": [ [ [ [ 10.795142, 59.956465 ], [ 10.796842, 59.956721 ], [ 10.797207, 59.956971 ], [ 10.796862, 59.95785 ], [ 10.796112, 59.957812 ], [ 10.795215, 59.959254 ], [ 10.794836, 59.959739 ], [ 10.793785, 59.959232 ], [ 10.793337, 59.95918 ], [ 10.792658, 59.958991 ], [ 10.792774, 59.958731 ], [ 10.793587, 59.957546 ], [ 10.79317, 59.957415 ], [ 10.793368, 59.957086 ], [ 10.792878, 59.956956 ], [ 10.792847, 59.956621 ], [ 10.792711, 59.956428 ], [ 10.792398, 59.956329 ], [ 10.792513, 59.956099 ], [ 10.792742, 59.95553 ], [ 10.792868, 59.955081 ], [ 10.793014, 59.954548 ], [ 10.793049, 59.953866 ], [ 10.793431, 59.953879 ], [ 10.793859, 59.953837 ], [ 10.794516, 59.953858 ], [ 10.794704, 59.954485 ], [ 10.79438, 59.954825 ], [ 10.794787, 59.955054 ], [ 10.795726, 59.955488 ], [ 10.795142, 59.956465 ] ] ] ] } },
{ "type": "Feature", "properties": { "fid": 22.0, "id": "67", "fill": "#fff300", "fornavn_e": "Torunn " }, "geometry": { "type": "MultiPolygon", "coordinates": [ [ [ [ 10.769286, 59.95358 ], [ 10.769096, 59.953223 ], [ 10.771438, 59.952504 ], [ 10.774037, 59.951809 ], [ 10.775779, 59.951262 ], [ 10.776704, 59.950907 ], [ 10.777005, 59.952527 ], [ 10.775881, 59.952832 ], [ 10.775941, 59.951353 ], [ 10.77445, 59.951725 ], [ 10.77445, 59.952213 ], [ 10.773121, 59.95245 ], [ 10.772043, 59.952665 ], [ 10.769987, 59.953358 ], [ 10.770311, 59.953739 ], [ 10.770195, 59.953908 ], [ 10.769933, 59.954022 ], [ 10.770021, 59.954359 ], [ 10.77053, 59.954162 ], [ 10.770976, 59.954497 ], [ 10.770534, 59.954647 ], [ 10.770259, 59.954503 ], [ 10.769896, 59.954412 ], [ 10.769875, 59.953991 ], [ 10.770163, 59.953887 ], [ 10.770198, 59.953779 ], [ 10.769807, 59.953416 ], [ 10.769286, 59.95358 ] ] ] ] } },
{ "type": "Feature", "properties": { "fid": 75.0, "id": "1", "fill": null, "fornavn_e": "Tove H" }, "geometry": { "type": "MultiPolygon", "coordinates": [ [ [ [ 10.794881, 59.960898 ], [ 10.7941, 59.960575 ], [ 10.794646, 59.960041 ], [ 10.794919, 59.9597 ], [ 10.795588, 59.958818 ], [ 10.796171, 59.957837 ], [ 10.796928, 59.957881 ], [ 10.796283, 59.958769 ], [ 10.795762, 59.959315 ], [ 10.795415, 59.95924 ], [ 10.794584, 59.960191 ], [ 10.795129, 59.960383 ], [ 10.794881, 59.960898 ] ] ] ] } },
{ "type": "Feature", "properties": { "fid": 10.0, "id": "110", "fill": null, "fornavn_e": "Tove S  C" }, "geometry": { "type": "MultiPolygon", "coordinates": [ [ [ [ 10.793303, 59.960204 ], [ 10.793944, 59.959313 ], [ 10.794449, 59.959557 ], [ 10.794812, 59.959903 ], [ 10.794012, 59.960502 ], [ 10.793303, 59.960204 ] ] ] ] } },
{ "type": "Feature", "properties": { "fid": 11.0, "id": "1101", "fill": null, "fornavn_e": "Tove S C 1" }, "geometry": { "type": "MultiPolygon", "coordinates": [ [ [ [ 10.79308, 59.946932 ], [ 10.793397, 59.947437 ], [ 10.793239, 59.947665 ], [ 10.792444, 59.947898 ], [ 10.791832, 59.948159 ], [ 10.791673, 59.948494 ], [ 10.792002, 59.948773 ], [ 10.792433, 59.949119 ], [ 10.793846, 59.94884 ], [ 10.794504, 59.948882 ], [ 10.793906, 59.949847 ], [ 10.793783, 59.950329 ], [ 10.793602, 59.950579 ], [ 10.793863, 59.950863 ], [ 10.793885, 59.951323 ], [ 10.793465, 59.951676 ], [ 10.792592, 59.951517 ], [ 10.792751, 59.951011 ], [ 10.793587, 59.950341 ], [ 10.793174, 59.949867 ], [ 10.791283, 59.950112 ], [ 10.791355, 59.949426 ], [ 10.792195, 59.949102 ], [ 10.791571, 59.948585 ], [ 10.791003, 59.948693 ], [ 10.790561, 59.948557 ], [ 10.790901, 59.948182 ], [ 10.792036, 59.947398 ], [ 10.79308, 59.946932 ] ] ] ] } },
{ "type": "Feature", "properties": { "fid": 39.0, "id": "123", "fill": null, "fornavn_e": "Vigdis L O" }, "geometry": { "type": "MultiPolygon", "coordinates": [ [ [ [ 10.813352, 59.982294 ], [ 10.803781, 59.978169 ], [ 10.810604, 59.973712 ], [ 10.820554, 59.977315 ], [ 10.821786, 59.982483 ], [ 10.817995, 59.983431 ], [ 10.813352, 59.982294 ] ] ] ] } },
{ "type": "Feature", "properties": { "fid": 33.0, "id": "52", "fill": null, "fornavn_e": "Vivi M" }, "geometry": { "type": "MultiPolygon", "coordinates": [ [ [ [ 10.777313, 59.964064 ], [ 10.777834, 59.963933 ], [ 10.77832, 59.96391 ], [ 10.778817, 59.963845 ], [ 10.779315, 59.964064 ], [ 10.779717, 59.964011 ], [ 10.780026, 59.964233 ], [ 10.780228, 59.964262 ], [ 10.780689, 59.964289 ], [ 10.780939, 59.964161 ], [ 10.781131, 59.96412 ], [ 10.781778, 59.964153 ], [ 10.781838, 59.964224 ], [ 10.781826, 59.964627 ], [ 10.781624, 59.964918 ], [ 10.780653, 59.964918 ], [ 10.780132, 59.965161 ], [ 10.779326, 59.96493 ], [ 10.778237, 59.964556 ], [ 10.777313, 59.964064 ] ] ] ] } },
{ "type": "Feature", "properties": { "fid": 19.0, "id": "114", "fill": null, "fornavn_e": "Wenche H" }, "geometry": { "type": "MultiPolygon", "coordinates": [ [ [ [ 10.792019, 59.948687 ], [ 10.791829, 59.948431 ], [ 10.7919, 59.948247 ], [ 10.792517, 59.947944 ], [ 10.792992, 59.947801 ], [ 10.793882, 59.948794 ], [ 10.793158, 59.948859 ], [ 10.792458, 59.94899 ], [ 10.792019, 59.948687 ] ] ] ] } },
{ "type": "Feature", "properties": { "fid": 61.0, "id": "76", "fill": null, "fornavn_e": "Åse G S" }, "geometry": { "type": "MultiPolygon", "coordinates": [ [ [ [ 10.785613, 59.955787 ], [ 10.785638, 59.957804 ], [ 10.785316, 59.958772 ], [ 10.784944, 59.959522 ], [ 10.784609, 59.960056 ], [ 10.784101, 59.960006 ], [ 10.783915, 59.959826 ], [ 10.783705, 59.959553 ], [ 10.78244, 59.959603 ], [ 10.782887, 59.959001 ], [ 10.782602, 59.958666 ], [ 10.783085, 59.958319 ], [ 10.782143, 59.958089 ], [ 10.782267, 59.95776 ], [ 10.782465, 59.957494 ], [ 10.782453, 59.957326 ], [ 10.782403, 59.957171 ], [ 10.782738, 59.95701 ], [ 10.782701, 59.956718 ], [ 10.783283, 59.956613 ], [ 10.783407, 59.95673 ], [ 10.785105, 59.956296 ], [ 10.785204, 59.956222 ], [ 10.785167, 59.955862 ], [ 10.785613, 59.955787 ] ] ] ] } },
{ "type": "Feature", "properties": { "fid": 67.0, "id": "69", "fill": null, "fornavn_e": "Øivind Ø" }, "geometry": { "type": "MultiPolygon", "coordinates": [ [ [ [ 10.796681, 59.950299 ], [ 10.796465, 59.950261 ], [ 10.795729, 59.950189 ], [ 10.795694, 59.950074 ], [ 10.7959, 59.949963 ], [ 10.796061, 59.949638 ], [ 10.796203, 59.949358 ], [ 10.797052, 59.94943 ], [ 10.797455, 59.949011 ], [ 10.797938, 59.949005 ], [ 10.798081, 59.949051 ], [ 10.798657, 59.949175 ], [ 10.798446, 59.949346 ], [ 10.798446, 59.949507 ], [ 10.797913, 59.9497 ], [ 10.797393, 59.950376 ], [ 10.796984, 59.9506 ], [ 10.796744, 59.950312 ], [ 10.796681, 59.950299 ] ] ] ] } }
]
}
