{
"type": "FeatureCollection",
"name": "GrefsenMenighet_flate",
"crs": { "type": "name", "properties": { "name": "urn:ogc:def:crs:OGC:1.3:CRS84" } },
"features": [
{ "type": "Feature", "properties": { "DATAFANGST": "20060307", "KOMMUNENUM": "0301", "LOKALID   ": "\"19190ed5-ec1c-4224-b9a8-2f934787484f\"", "NAVNEROM  ": "\"https:\/\/data.geonorge.no\/sosi\/administrativeenheter\"", "OBJTYPE   ": "Sokn", "OPPDATERIN": null, "OPPHAV    ": "\"abas,dek og ssb grunnkretser\"", "ORGANISASJ": "974789264", "REF       ": ":164920 :165009 :-165012 :164912 :164944 :-164945 :164943 :164947 :164946 :164929", "SOKNENAVN ": "Grefsen", "SOKNENUMME": "01050901", "SOSI_ID   ": "165053", "TYPE      ": "FLATE" }, "geometry": { "type": "MultiPolygon", "coordinates": [ [ [ [ 10.787452726777829, 59.969391884507772 ], [ 10.787096596614695, 59.970307697992915 ], [ 10.78711609811114, 59.97119631717193 ], [ 10.787474604517744, 59.972247189155603 ], [ 10.787865154472001, 59.973366429696462 ], [ 10.787746143357872, 59.974571255959383 ], [ 10.787383783700816, 59.97539884553408 ], [ 10.787017961502515, 59.976043437704121 ], [ 10.787359509901261, 59.976610386376457 ], [ 10.786344204097839, 59.977601966200318 ], [ 10.786628738527261, 59.978397005208862 ], [ 10.787616437346752, 59.979723343903146 ], [ 10.78896011344086, 59.980422654929626 ], [ 10.791338402091588, 59.981895254095058 ], [ 10.794688314853692, 59.981395253559405 ], [ 10.795938349068274, 59.983333572057333 ], [ 10.795836492330929, 59.985485919765622 ], [ 10.796156617497509, 59.986883140867455 ], [ 10.798873021025059, 59.987024405906304 ], [ 10.801548939034888, 59.986977124963744 ], [ 10.80508806314266, 59.985894575256616 ], [ 10.806163970183253, 59.984371330331761 ], [ 10.807002082128369, 59.982844830376912 ], [ 10.809867211204521, 59.982582759667409 ], [ 10.814238807629243, 59.983214194682155 ], [ 10.819025426738827, 59.984443526608224 ], [ 10.824153576671392, 59.985958178228607 ], [ 10.828263796045967, 59.98852043489898 ], [ 10.830080691625081, 59.990552292557346 ], [ 10.83268286561592, 59.992612540128569 ], [ 10.83268286561592, 59.992612540128569 ], [ 10.832592150606457, 59.990301817718667 ], [ 10.832456431980477, 59.989241963266302 ], [ 10.832057235352938, 59.988447470184823 ], [ 10.832049048374623, 59.987811444922229 ], [ 10.831698338295206, 59.98664786645773 ], [ 10.831766731270202, 59.985663156611935 ], [ 10.832146571037001, 59.982800775044026 ], [ 10.833983976199191, 59.981260586964197 ], [ 10.837677032713348, 59.978882749803631 ], [ 10.838808464512255, 59.977832882918939 ], [ 10.841875316151533, 59.976830054874384 ], [ 10.843640166251015, 59.97667451936907 ], [ 10.84325321054208, 59.97579008717257 ], [ 10.839787976386679, 59.972600476745896 ], [ 10.837989158309812, 59.971994591480126 ], [ 10.837021204123609, 59.971487307572318 ], [ 10.837170794407339, 59.970410036257448 ], [ 10.83655338674278, 59.96937183279082 ], [ 10.836014287759918, 59.968872243520302 ], [ 10.835705318259508, 59.968218532548079 ], [ 10.835932265706905, 59.967295027798812 ], [ 10.835086717343293, 59.966987961212929 ], [ 10.834165672537775, 59.966796466505045 ], [ 10.832169944422084, 59.966605684759408 ], [ 10.830494789756422, 59.966212014461476 ], [ 10.828020127941864, 59.964723955470276 ], [ 10.825870522076228, 59.964302522790071 ], [ 10.824334186573369, 59.963649814032465 ], [ 10.82409383087117, 59.960303118653279 ], [ 10.824167883621465, 59.958698460444083 ], [ 10.824167883621465, 59.958698460444083 ], [ 10.823608691520707, 59.958656909051129 ], [ 10.823419649879073, 59.958634642336278 ], [ 10.823198762092623, 59.958628898699395 ], [ 10.822069854664756, 59.958563883552699 ], [ 10.821232120316818, 59.956936601170149 ], [ 10.820213036130699, 59.955691621204615 ], [ 10.819468663434701, 59.955845040804306 ], [ 10.818727676937936, 59.955353529472099 ], [ 10.819334231798621, 59.954617062313645 ], [ 10.819905135109789, 59.954042203708525 ], [ 10.820422380046827, 59.953476160426327 ], [ 10.821136474291057, 59.952847307022353 ], [ 10.820861716091846, 59.952726020319652 ], [ 10.820861716091846, 59.952726020319652 ], [ 10.820795515029026, 59.952763391834026 ], [ 10.819970696762331, 59.953229674641584 ], [ 10.819574946298363, 59.953054284838927 ], [ 10.819568344232803, 59.953051198125671 ], [ 10.817978147779886, 59.952345891022389 ], [ 10.817978147779886, 59.952345891022389 ], [ 10.817593598480075, 59.952354632311845 ], [ 10.817551010903163, 59.952369644344962 ], [ 10.817413772632609, 59.952246871813564 ], [ 10.81729694205244, 59.952022066562755 ], [ 10.817235069878965, 59.951848997785746 ], [ 10.817244648343147, 59.951665160304287 ], [ 10.817304414284195, 59.951444433641477 ], [ 10.817378622702879, 59.951249880618384 ], [ 10.81746607163304, 59.951058355437517 ], [ 10.817486909849153, 59.951013970704054 ], [ 10.817426617144095, 59.951005942293079 ], [ 10.817426617144095, 59.951005942293079 ], [ 10.816421610970417, 59.950910100464405 ], [ 10.816422338769707, 59.950908595058131 ], [ 10.815054441509742, 59.950776491126838 ], [ 10.815070561306358, 59.950584949006391 ], [ 10.815173054292611, 59.950453245629198 ], [ 10.81519087063516, 59.950442752323319 ], [ 10.815165071038157, 59.95033475638413 ], [ 10.815160827835738, 59.95032293289011 ], [ 10.815115957789871, 59.950329060117802 ], [ 10.815026646961531, 59.950391859291123 ], [ 10.8149373725066, 59.950472822000144 ], [ 10.814866220137802, 59.950580615018431 ], [ 10.814848308673554, 59.950661417261365 ], [ 10.814812713869362, 59.950706231947706 ], [ 10.814794850930967, 59.950751160423607 ], [ 10.814061102904757, 59.950751583421578 ], [ 10.81402517886057, 59.95070674410708 ], [ 10.813863365375141, 59.950419634576143 ], [ 10.813683623093986, 59.950105610463169 ], [ 10.813450039083914, 59.949773690476292 ], [ 10.813127386330887, 59.949495584261484 ], [ 10.812733028367893, 59.949271483449301 ], [ 10.812536012397915, 59.949217746438812 ], [ 10.812285392545776, 59.949137129299658 ], [ 10.812016602823375, 59.949065554690712 ], [ 10.811658555807874, 59.948993928810459 ], [ 10.811282635635918, 59.948940345619206 ], [ 10.810978536908063, 59.948922672935332 ], [ 10.810584823277857, 59.948904936737861 ], [ 10.810191159666958, 59.948878299525774 ], [ 10.809636343206853, 59.948851749658694 ], [ 10.809117324315306, 59.948807184809588 ], [ 10.808705630544729, 59.948744543578897 ], [ 10.808096855034213, 59.948610352187281 ], [ 10.80777455726977, 59.948529692897168 ], [ 10.807380418180845, 59.948386414210354 ], [ 10.807040309427189, 59.948314806872283 ], [ 10.80655685817082, 59.948180461264805 ], [ 10.80614492885228, 59.948073027301675 ], [ 10.805625818713592, 59.947992479981117 ], [ 10.805428810888909, 59.947938822093604 ], [ 10.804963465247168, 59.947858365717124 ], [ 10.80469471636524, 59.947813571159116 ], [ 10.804336911430802, 59.947786979187484 ], [ 10.804179011519755, 59.948926730410911 ], [ 10.80425098988658, 59.949070367408233 ], [ 10.804018836586399, 59.9492588944291 ], [ 10.803715314097326, 59.949528317713373 ], [ 10.801745738704064, 59.949188445123625 ], [ 10.80181626745639, 59.948757578176007 ], [ 10.801869429597538, 59.94845248661764 ], [ 10.801958655500247, 59.948380611946348 ], [ 10.802119341603111, 59.948237015576666 ], [ 10.802422187120012, 59.947725256726372 ], [ 10.802511344768204, 59.947608602510314 ], [ 10.802457582640477, 59.947554739286673 ], [ 10.80231412380879, 59.94750997611952 ], [ 10.801831324538131, 59.947573083997376 ], [ 10.801652425143818, 59.947600110636763 ], [ 10.801402001315887, 59.947654079201683 ], [ 10.80115151343283, 59.947690152409251 ], [ 10.801044315766237, 59.947744010347421 ], [ 10.800901421734535, 59.947824963203473 ], [ 10.800758601014271, 59.94795060544957 ], [ 10.800579979425232, 59.948067373601134 ], [ 10.800472704764747, 59.948130309965684 ], [ 10.800347572173626, 59.948211109238848 ], [ 10.80016884585056, 59.948265023733903 ], [ 10.79997200970719, 59.948292105694073 ], [ 10.79973945984745, 59.948301144735986 ], [ 10.799488853444231, 59.948274451209144 ], [ 10.799381603271501, 59.948256554883642 ], [ 10.799220405553742, 59.948184877835359 ], [ 10.799059142899003, 59.948149074176385 ], [ 10.798844529384327, 59.948104285700204 ], [ 10.798701073250212, 59.94805951862913 ], [ 10.798522122747526, 59.948014788121142 ], [ 10.798289688985829, 59.948032819672825 ], [ 10.798074870977407, 59.948041971794822 ], [ 10.798003307001247, 59.948023953911409 ], [ 10.797895754281303, 59.947997145199409 ], [ 10.79741146442054, 59.947709974358766 ], [ 10.797286268137402, 59.947745991608492 ], [ 10.797089543690294, 59.947808948525854 ], [ 10.796946426569201, 59.94784493313464 ], [ 10.796767582885094, 59.947889847932544 ], [ 10.796588613391172, 59.94792585698579 ], [ 10.796409647417711, 59.947934981593939 ], [ 10.796373712377084, 59.947872063790903 ], [ 10.796391701019038, 59.947836222647254 ], [ 10.796712152252837, 59.946893718999554 ], [ 10.796712106348929, 59.946848850393494 ], [ 10.796694269883883, 59.946785970726033 ], [ 10.796676114603653, 59.946741153617346 ], [ 10.796604660531361, 59.946705335407707 ], [ 10.796533039456179, 59.94666942191224 ], [ 10.796443552280429, 59.946624576190366 ], [ 10.796246624574428, 59.946615683861545 ], [ 10.796103580543402, 59.946615794054622 ], [ 10.79596035378556, 59.94664278259259 ], [ 10.795852977119297, 59.946669746365849 ], [ 10.795728082394636, 59.946741557552507 ], [ 10.79563854412633, 59.946804516727425 ], [ 10.795567244587042, 59.946849445797376 ], [ 10.795441877859252, 59.9469122502543 ], [ 10.79531679620362, 59.946957260691939 ], [ 10.795173578715112, 59.946984158799658 ], [ 10.794994682490106, 59.94698429219001 ], [ 10.794941144327646, 59.946975389868342 ], [ 10.792721493886599, 59.94659951967251 ], [ 10.79216555977051, 59.946007477737965 ], [ 10.79209383963768, 59.945935682686958 ], [ 10.792022101056324, 59.945890861316769 ], [ 10.791914768940531, 59.945836990277705 ], [ 10.791717571484, 59.945765322172143 ], [ 10.791556460730661, 59.945711530860592 ], [ 10.791341625620287, 59.945648919452374 ], [ 10.791055360397323, 59.94557719162551 ], [ 10.790983615781922, 59.945559253869263 ], [ 10.790786600528579, 59.945487590111675 ], [ 10.789175159585517, 59.945048640860939 ], [ 10.789031955488735, 59.945048648191865 ], [ 10.78883517135651, 59.944994971660272 ], [ 10.7884772422699, 59.944896310081468 ], [ 10.788119292585572, 59.944797826653563 ], [ 10.787904381158659, 59.944726035632385 ], [ 10.787689637791916, 59.944654339529471 ], [ 10.787492568193791, 59.944591660297093 ], [ 10.787313618874361, 59.944528841005543 ], [ 10.787116796310434, 59.944457177612087 ], [ 10.786937737052305, 59.944385362792559 ], [ 10.786794459285526, 59.944295720315765 ], [ 10.786543864420269, 59.944152202417925 ], [ 10.787759483829971, 59.943747805984877 ], [ 10.78784889461857, 59.943702830866179 ], [ 10.787920287137576, 59.943693874718484 ], [ 10.788027705122921, 59.943684901728091 ], [ 10.788152940519883, 59.943666877564546 ], [ 10.788170419546889, 59.943505320451195 ], [ 10.788295403579646, 59.943298827089023 ], [ 10.788313084584818, 59.943209028296266 ], [ 10.789079592675304, 59.941673968873673 ], [ 10.7890975609892, 59.94159317067335 ], [ 10.789133088888237, 59.941512394411092 ], [ 10.789150766473004, 59.941422595453673 ], [ 10.789239939175159, 59.941260902822542 ], [ 10.789311208017027, 59.941144224424853 ], [ 10.789346888459432, 59.941018495714225 ], [ 10.789346571025787, 59.940937742278606 ], [ 10.78934654413489, 59.940865989588978 ], [ 10.78934646219964, 59.940803136681978 ], [ 10.789292506178505, 59.94070448370524 ], [ 10.789256441830442, 59.940560905958776 ], [ 10.78920265543589, 59.940489142813611 ], [ 10.788629317913182, 59.940022675934607 ], [ 10.788574978966574, 59.939753532211405 ], [ 10.788771145613627, 59.939439349387918 ], [ 10.789003074439977, 59.939161016886445 ], [ 10.789003074439977, 59.939161016886445 ], [ 10.788519809535057, 59.93905358088243 ], [ 10.788108119846974, 59.938937102931035 ], [ 10.787821673125968, 59.938847557741759 ], [ 10.787463812184653, 59.938722099485432 ], [ 10.786640397327021, 59.938426103912889 ], [ 10.786353859497904, 59.938300676441003 ], [ 10.785225812419208, 59.937807541683135 ], [ 10.784509773326819, 59.937484756963208 ], [ 10.784509773326819, 59.937484756963208 ], [ 10.784027220313281, 59.937700390647422 ], [ 10.783794952865849, 59.937826118629246 ], [ 10.783634121322713, 59.937933992462781 ], [ 10.783401989612482, 59.938113583207553 ], [ 10.783205489912879, 59.938248278078142 ], [ 10.783044886527664, 59.938374051654137 ], [ 10.782937570958591, 59.938490831558539 ], [ 10.782812792232718, 59.938643467736739 ], [ 10.782670071084256, 59.938823043221525 ], [ 10.782598730937975, 59.938921823069201 ], [ 10.782491586945257, 59.939065402835766 ], [ 10.782473892898125, 59.939155200743883 ], [ 10.782064223355407, 59.940025944974124 ], [ 10.781708131731415, 59.941183884593649 ], [ 10.780795240901465, 59.940645992538506 ], [ 10.77854821251449, 59.945269177052033 ], [ 10.779532275506378, 59.945385323503459 ], [ 10.779033150327331, 59.946471688554503 ], [ 10.778070569281681, 59.948536670831373 ], [ 10.777803145622938, 59.949102207497155 ], [ 10.777713875669319, 59.949290775453584 ], [ 10.77744627981329, 59.949757669123905 ], [ 10.777232237612097, 59.950089787913235 ], [ 10.7770536193784, 59.950287360021427 ], [ 10.776857038887728, 59.950466912499465 ], [ 10.776607044463246, 59.950691418187162 ], [ 10.776428262785148, 59.950790347308647 ], [ 10.776160117998051, 59.950951869096009 ], [ 10.775856113527864, 59.951086704521224 ], [ 10.775659487362912, 59.951176518505974 ], [ 10.775570218342235, 59.951221490648607 ], [ 10.775355598410586, 59.951320258181404 ], [ 10.773584991957001, 59.951823633724445 ], [ 10.770078905946734, 59.952812292663943 ], [ 10.769506567270545, 59.952983005951644 ], [ 10.769453072812812, 59.952991987943243 ], [ 10.768808895966684, 59.953153827380703 ], [ 10.768006547965753, 59.952416190690698 ], [ 10.768560238229956, 59.952321313282617 ], [ 10.768654536969015, 59.952296018901485 ], [ 10.768837029460064, 59.952245503598832 ], [ 10.769163842144037, 59.952157003359574 ], [ 10.769346387595538, 59.952103252120338 ], [ 10.769767711214007, 59.951998993404054 ], [ 10.770082144767819, 59.951935809318442 ], [ 10.770358807274249, 59.951882021764966 ], [ 10.7708368273658, 59.951799811212382 ], [ 10.771079560040263, 59.951761836984758 ], [ 10.771163940285282, 59.951727140989313 ], [ 10.771182709469052, 59.951705084813078 ], [ 10.771233085070103, 59.951667139156484 ], [ 10.771692443586774, 59.951726932550521 ], [ 10.772554052683848, 59.951584556236547 ], [ 10.773172079784464, 59.951479765953842 ], [ 10.773654695106105, 59.951397962634353 ], [ 10.774239631843761, 59.951284103334785 ], [ 10.774774004518894, 59.951157649976203 ], [ 10.77534607791141, 59.950961820131631 ], [ 10.775676817552185, 59.950808511449438 ], [ 10.776068721751789, 59.950598628483597 ], [ 10.776263529409086, 59.950459751848491 ], [ 10.776477114025695, 59.950286050399981 ], [ 10.776766097656882, 59.94997359912805 ], [ 10.776972900193583, 59.949550614350663 ], [ 10.777085413680105, 59.949061486032598 ], [ 10.777216469506458, 59.948436640635158 ], [ 10.777247702817265, 59.948316705958518 ], [ 10.777441692031937, 59.9477169862203 ], [ 10.778212416386614, 59.945924325960597 ], [ 10.778067665686144, 59.945905479591566 ], [ 10.77774779879644, 59.946524093148952 ], [ 10.777691235059619, 59.94651787407787 ], [ 10.77751564275486, 59.946902926713435 ], [ 10.777075383535079, 59.946839988324868 ], [ 10.77663676550087, 59.947110237128832 ], [ 10.776225493107031, 59.947307900724788 ], [ 10.775969260086248, 59.947433837434886 ], [ 10.775711448857704, 59.947541200515928 ], [ 10.775371888510495, 59.947661316695779 ], [ 10.774674166485518, 59.947860398041961 ], [ 10.773561013859577, 59.948078606065287 ], [ 10.772863104952068, 59.94814828384947 ], [ 10.772617800854892, 59.94816729598498 ], [ 10.772196451273473, 59.948186501704733 ], [ 10.772076187265561, 59.94818641794739 ], [ 10.771925826858913, 59.948183389865527 ], [ 10.771277844389035, 59.948130038975442 ], [ 10.770164324034122, 59.947937922070672 ], [ 10.769327530940428, 59.94777419579659 ], [ 10.768459473225825, 59.947616742788512 ], [ 10.767530826752457, 59.947436926084158 ], [ 10.766150545168978, 59.947197807914854 ], [ 10.765634758806852, 59.947115858573753 ], [ 10.765552781163462, 59.946942382893305 ], [ 10.765261615303391, 59.946971056385237 ], [ 10.765261615303391, 59.946971056385237 ], [ 10.765283302929161, 59.947021567086246 ], [ 10.765402100151281, 59.947191640993047 ], [ 10.765546842179758, 59.947223179191084 ], [ 10.76554697633582, 59.947339984273739 ], [ 10.765603638466386, 59.947516602391637 ], [ 10.765704891174519, 59.94778474966791 ], [ 10.765359368298665, 59.948286522064635 ], [ 10.765346969545812, 59.94842846034836 ], [ 10.765303202116529, 59.94877242028636 ], [ 10.765272213548347, 59.949214169992644 ], [ 10.765241253418488, 59.949526621523837 ], [ 10.765096640644982, 59.949599209999512 ], [ 10.765022642085254, 59.949861273628116 ], [ 10.765059678460899, 59.950347201114653 ], [ 10.764827505577601, 59.950754248929954 ], [ 10.764661385267813, 59.950983858107982 ], [ 10.764494648774692, 59.951294011998748 ], [ 10.76424949673736, 59.951413989646966 ], [ 10.763954140751094, 59.951546649068632 ], [ 10.76386593798687, 59.951584544558166 ], [ 10.763545167833094, 59.95171404802521 ], [ 10.763325110330268, 59.951808755504835 ], [ 10.763130327897523, 59.951903466348526 ], [ 10.7630425546064, 59.952149710575426 ], [ 10.763155998741524, 59.952278972081643 ], [ 10.763275887191693, 59.952458793702291 ], [ 10.763345174741003, 59.952591310441377 ], [ 10.763577663280746, 59.952720533767163 ], [ 10.76369049827122, 59.952839165044544 ], [ 10.763713295893043, 59.953003005787643 ], [ 10.763668503746644, 59.953189309892004 ], [ 10.763589792216418, 59.953387111400005 ], [ 10.763589792216418, 59.953387111400005 ], [ 10.763540252718977, 59.95353621742202 ], [ 10.763450326207384, 59.953660466586271 ], [ 10.763304105631825, 59.953767889242947 ], [ 10.763214016118377, 59.953869564116289 ], [ 10.76322554193038, 59.954005168481672 ], [ 10.763349516806151, 59.954106804465354 ], [ 10.763597549292538, 59.954236527419162 ], [ 10.763901842200324, 59.954366530443252 ], [ 10.764206042078238, 59.954456607040726 ], [ 10.764532791053549, 59.954552623014322 ], [ 10.764780330263163, 59.954625950429026 ], [ 10.764960768293983, 59.954750170566868 ], [ 10.765152547193081, 59.955032557380029 ], [ 10.765254254722569, 59.955190662033388 ], [ 10.765353448104314, 59.955392294966877 ], [ 10.765522575377251, 59.955544743854759 ], [ 10.765680438362745, 59.955663291820258 ], [ 10.765905713942463, 59.955781848272274 ], [ 10.766164875549197, 59.955900414356719 ], [ 10.76636792189168, 59.956018974860676 ], [ 10.766489550546645, 59.956198039525532 ], [ 10.766489806661218, 59.956333550867569 ], [ 10.76647875456249, 59.956480387867344 ], [ 10.766309902195657, 59.956649847848141 ], [ 10.766049155482937, 59.956947721342445 ], [ 10.765824249437319, 59.95724710600215 ], [ 10.765711821841151, 59.957473047666511 ], [ 10.765667221137841, 59.957642454256806 ], [ 10.765779836586534, 59.957834537361492 ], [ 10.765991886006974, 59.957968313588715 ], [ 10.76623986050485, 59.958199813512863 ], [ 10.766454016292093, 59.958346604466492 ], [ 10.766814963753367, 59.958589286359334 ], [ 10.767017645302374, 59.958730492484733 ], [ 10.767164205048203, 59.958882932931182 ], [ 10.767229738570444, 59.959050663218875 ], [ 10.767230154814529, 59.959214413153845 ], [ 10.767309071870754, 59.959428969879681 ], [ 10.767455740598823, 59.959666203927689 ], [ 10.767557336801152, 59.959756596099098 ], [ 10.767775577573858, 59.959886971287069 ], [ 10.767978495408251, 59.959977290971793 ], [ 10.768237750956914, 59.960016819217373 ], [ 10.768586872563771, 59.960028032478583 ], [ 10.76886810982595, 59.959943192792466 ], [ 10.769104689656251, 59.959875261232249 ], [ 10.769341053990091, 59.959830070997363 ], [ 10.769510157498788, 59.959813112078251 ], [ 10.769724050483967, 59.959852619424119 ], [ 10.769938282433243, 59.959920370785809 ], [ 10.770141027924232, 59.960010681472568 ], [ 10.770321710792713, 59.960129146421224 ], [ 10.770400859167715, 59.960292905946012 ], [ 10.770513540253326, 59.960456662896455 ], [ 10.770536547939782, 59.960626172957994 ], [ 10.77053663578314, 59.960756103729906 ], [ 10.770593223570092, 59.960880295330881 ], [ 10.770636060379813, 59.960974553185231 ], [ 10.770793807453172, 59.961031138512851 ], [ 10.770985151841764, 59.961036651062123 ], [ 10.771187989377733, 59.961002699658891 ], [ 10.771435822438619, 59.960991322222945 ], [ 10.771694756062484, 59.961008174368629 ], [ 10.771863836008736, 59.961042013802164 ], [ 10.771965465557569, 59.961126648696009 ], [ 10.771977051187934, 59.9612283551999 ], [ 10.771931974900166, 59.961330041693387 ], [ 10.771774276947431, 59.961431800507299 ], [ 10.77160561516861, 59.961589943950244 ], [ 10.771526825397464, 59.961691627348792 ], [ 10.77153821967365, 59.961804657120148 ], [ 10.771606086696035, 59.961951509182981 ], [ 10.771718986478422, 59.962064469617857 ], [ 10.771852106276743, 59.962311243602194 ], [ 10.772032866817224, 59.962593624121972 ], [ 10.772100436930618, 59.962650101301335 ], [ 10.772163350304673, 59.962804886410709 ], [ 10.772141178605088, 59.962974384870911 ], [ 10.772141255397536, 59.9631325485757 ], [ 10.772231521114261, 59.963313297704921 ], [ 10.772524460780115, 59.963471327176222 ], [ 10.773054472161943, 59.963651887548984 ], [ 10.773651739365917, 59.96384368443367 ], [ 10.774203842157458, 59.963979091712048 ], [ 10.774564634853018, 59.96406924844878 ], [ 10.774744659024899, 59.964131308481903 ], [ 10.774891291174065, 59.9642442685169 ], [ 10.775026933934706, 59.964436361072899 ], [ 10.775114726650065, 59.964660547478218 ], [ 10.775182750229813, 59.964892102381015 ], [ 10.775216737209867, 59.965072752859292 ], [ 10.775217152567624, 59.965304297913811 ], [ 10.775215256332201, 59.965539904948422 ], [ 10.775193074066761, 59.965760205364546 ], [ 10.775125546719321, 59.965963406614264 ], [ 10.775047222741499, 59.966178130473551 ], [ 10.774934855175664, 59.966358853732046 ], [ 10.774844758953545, 59.966454961484096 ], [ 10.774831143629484, 59.966464685327004 ], [ 10.774831433088663, 59.96661143629894 ], [ 10.774932886298414, 59.966707481922882 ], [ 10.775101979822546, 59.966786454373853 ], [ 10.775327248884516, 59.966797633286809 ], [ 10.775440067236266, 59.966797563832415 ], [ 10.775856900242687, 59.966769206425845 ], [ 10.776239843391606, 59.966746415118443 ], [ 10.776577739339043, 59.966746366040162 ], [ 10.776848034101601, 59.966746217549982 ], [ 10.777442956712054, 59.966795225126056 ], [ 10.777938831492595, 59.966891049149396 ], [ 10.778243166747258, 59.966947466059402 ], [ 10.778513641906143, 59.966947319894324 ], [ 10.778873988396825, 59.96692451630738 ], [ 10.779076506238344, 59.966851069237791 ], [ 10.779234029651047, 59.966721152658863 ], [ 10.779368955301747, 59.96661937480571 ], [ 10.779583124021107, 59.966562844560535 ], [ 10.779715896855567, 59.966532839493951 ], [ 10.779862232489313, 59.966544179982812 ], [ 10.779963730810582, 59.966600570373323 ], [ 10.779997766058074, 59.966724753957976 ], [ 10.780043098477828, 59.9668658436754 ], [ 10.780268811926117, 59.967074841170309 ], [ 10.78052844294384, 59.967289330141121 ], [ 10.780765150418738, 59.967436008008747 ], [ 10.781024801646684, 59.967554647245365 ], [ 10.781337801987602, 59.967614930785224 ], [ 10.78161974310248, 59.967654348080956 ], [ 10.781822257281448, 59.967631608678175 ], [ 10.782013827551754, 59.967563830986315 ], [ 10.782193942412865, 59.96749586618968 ], [ 10.78243051496262, 59.96747889160936 ], [ 10.782689874297143, 59.967495644628208 ], [ 10.78298275000949, 59.967546378554786 ], [ 10.783354882146785, 59.967670500845159 ], [ 10.783715718371834, 59.967811524217211 ], [ 10.784121746681384, 59.967980786984825 ], [ 10.784401182081185, 59.96813152231578 ], [ 10.784593091028352, 59.968232971177734 ], [ 10.784773337578756, 59.968255551170543 ], [ 10.78497620722324, 59.968238482878874 ], [ 10.785156132444188, 59.968148029357643 ], [ 10.785358841646143, 59.968006783256563 ], [ 10.785527657908698, 59.967893675136089 ], [ 10.78574164501455, 59.967820225170414 ], [ 10.785966756869374, 59.967814386763699 ], [ 10.786181254412115, 59.967859549776804 ], [ 10.786350364698711, 59.967966830702686 ], [ 10.786497251531848, 59.968085269505018 ], [ 10.786666541232959, 59.968254596756331 ], [ 10.78679995993509, 59.968507116696166 ], [ 10.787014284290269, 59.968653786199496 ], [ 10.787217301033865, 59.968777974841124 ], [ 10.787442930343264, 59.968879508240441 ], [ 10.787758758045218, 59.969037603424241 ], [ 10.787861141437212, 59.969074504115753 ], [ 10.787899760269276, 59.969160078321678 ], [ 10.787953777750012, 59.969231758394088 ], [ 10.787935944543261, 59.969339535319598 ], [ 10.787900246651434, 59.969438289258804 ], [ 10.787882570474819, 59.969501113962842 ], [ 10.787599450961086, 59.969436946424025 ], [ 10.787452726777829, 59.969391884507772 ] ] ] ] } }
]
}
